{"crs": {}, "type": "FeatureCollection", "features": [{"geometry": {"coordinates": [[[134.8854923, -4.2524556], [135.2077823, -4.4657554], [135.9278622, -4.4932654], [137.6778421, -5.2176851], [137.8966721, -4.7802153], [137.7695821, -4.6477354], [137.9242421, -4.5928554], [137.8326921, -4.5047954], [137.9707221, -4.2220556], [137.8770421, -4.2769055], [137.8505321, -4.2054956], [137.7336421, -4.2187956], [137.7358621, -4.1206756], [137.9255721, -4.1903556], [138.0012421, -3.8970657], [138.353942, -3.8256458], [138.259362, -3.7743158], [138.267082, -3.6276259], [138.075252, -3.5865359], [138.079242, -3.2409761], [138.0070321, -3.1847461], [138.0457721, -2.9847862], [137.8737521, -3.0808662], [137.3631721, -3.0689062], [137.1105121, -3.1335461], [137.0033821, -3.317446], [136.9506921, -3.2835961], [137.0406721, -3.2113061], [136.9031822, -3.1581261], [136.9602421, -3.390536], [136.8984422, -3.406226], [136.8505922, -3.2545261], [136.7455422, -3.2665961], [136.6678522, -3.1373161], [136.6656022, -3.2251461], [136.5672822, -3.2539761], [136.5714722, -3.0460162], [136.3392422, -3.0283462], [136.2044922, -2.8005863], [136.0113922, -2.7058563], [135.9237322, -2.9609062], [135.5064823, -3.352746], [135.3476823, -3.389196], [135.1125923, -3.381786], [134.8611223, -3.2499561], [134.8461823, -2.8985162], [134.6865523, -2.9669362], [134.6614324, -2.7562963], [134.5855024, -2.8048363], [134.6088424, -3.1276561], [134.7270623, -3.360456], [134.9188123, -3.440336], [135.0142523, -3.5988459], [135.1977623, -3.5956059], [135.0180923, -3.7186558], [135.0928823, -3.9664557], [134.8854923, -4.2524556]]], "type": "Polygon"}, "type": "Feature", "properties": null}]}