{"type": "FeatureCollection", "features": [{"type": "Feature", "geometry": {"type": "Polygon", "coordinates": [[[122.188141, 1.045298], [122.226273, 1.00335], [122.320999, 1.010509], [122.375313, 0.997158], [122.4674, 1.025363], [122.494095, 0.990939], [122.589439, 0.954507], [122.653801, 0.949849], [122.690964, 0.895421], [122.718719, 0.895446], [122.847275, 0.816487], [122.925346, 0.861357], [122.950432, 0.910492], [122.948494, 0.965814], [122.989319, 0.968382], [123.028053, 0.933226], [123.088364, 0.911231], [123.117294, 0.92862], [123.1465, 0.881753], [123.240799, 0.83596], [123.257477, 0.749624], [123.368813, 0.661965], [123.494171, 0.636227], [123.527229, 0.57175], [123.51918, 0.449638], [123.465736, 0.330308], [123.416306, 0.313156], [123.343658, 0.309153], [123.269981, 0.325868], [123.199982, 0.396042], [123.165573, 0.404253], [123.122955, 0.465821], [123.071152, 0.510825], [123.000008, 0.484606], [122.895432, 0.484932], [122.836777, 0.495058], [122.712585, 0.478211], [122.548058, 0.493073], [122.535942, 0.507037], [122.423508, 0.502104], [122.406532, 0.518997], [122.280655, 0.475349], [122.228798, 0.486402], [122.177422, 0.471345], [122.138397, 0.491899], [122.056122, 0.479517], [121.949081, 0.445606], [121.876221, 0.44692], [121.814293, 0.414142], [121.717461, 0.521079], [121.572685, 0.536764], [121.534134, 0.550474], [121.528786, 0.49727], [121.45018, 0.468869], [121.419083, 0.484982], [121.345665, 0.474487], [121.35453, 0.571319], [121.247383, 0.597502], [121.168579, 0.690562], [121.225578, 0.708211], [121.260277, 0.78299], [121.294579, 0.82408], [121.386032, 0.870693], [121.499672, 0.850688], [121.620621, 0.883505], [121.673096, 0.914232], [121.754608, 0.926077], [121.831047, 0.963612], [121.882187, 0.9727], [121.925529, 0.946584], [121.968292, 0.894658], [121.993927, 0.94102], [122.02533, 0.949058], [122.067818, 0.997213], [122.188141, 1.045298]], [[122.957306, 0.584448], [122.980988, 0.556596], [123.020927, 0.563377], [123.007317, 0.617577], [122.957306, 0.584448]]]}, "id": 75, "properties": {"ID": 3, "kode": 75, "Propinsi": "GORONTALO", "SUMBER": "Peta Dasar BAKOSURTANAL Skala 1 : 250.000", "Provinsi": "Gorontalo"}}, {"type": "Feature", "geometry": {"type": "MultiPolygon", "coordinates": [[[[120.98423, -2.835341], [121.078339, -2.778087], [121.133423, -2.87806], [121.167259, -2.970928], [121.210396, -2.97805], [121.255768, -3.057803], [121.315308, -3.065957], [121.355957, -3.019798], [121.486954, -2.992209], [121.568336, -2.914573], [121.645721, -2.883784], [121.703339, -2.811771], [121.724182, -2.759546], [121.760185, -2.71899], [121.797012, -2.710249], [121.81871, -2.763949], [121.872299, -2.777285], [121.899376, -2.80432], [121.940231, -2.932159], [122.000359, -2.962439], [122.090057, -2.961801], [122.130539, -3.015782], [122.191582, -3.032609], [122.190437, -3.094346], [122.241173, -3.138603], [122.274086, -3.138374], [122.294449, -3.195179], [122.285965, -3.253934], [122.312798, -3.271106], [122.288254, -3.309927], [122.292755, -3.35732], [122.373749, -3.379456], [122.390915, -3.405149], [122.372299, -3.463288], [122.330208, -3.423481], [122.322395, -3.380808], [122.277771, -3.365802], [122.238159, -3.398722], [122.302132, -3.471626], [122.275734, -3.552534], [122.198738, -3.56528], [122.195618, -3.608036], [122.248512, -3.666231], [122.308617, -3.691788], [122.367409, -3.752801], [122.4011, -3.737035], [122.448067, -3.749501], [122.465042, -3.795845], [122.512268, -3.854226], [122.515129, -3.882586], [122.671906, -3.897003], [122.603531, -3.976277], [122.663445, -4.008508], [122.643234, -4.129524], [122.704361, -4.158368], [122.792816, -4.1576], [122.843758, -4.125524], [122.771515, -4.059357], [122.842255, -4.057042], [122.8918, -4.125212], [122.905563, -4.196556], [122.88662, -4.297779], [122.904427, -4.377195], [122.840179, -4.445022], [122.773346, -4.407986], [122.683952, -4.323638], [122.663979, -4.351196], [122.701942, -4.401843], [122.767426, -4.449976], [122.746147, -4.507518], [122.681007, -4.479528], [122.613434, -4.401861], [122.586288, -4.393665], [122.503342, -4.448484], [122.42131, -4.430861], [122.36808, -4.461316], [122.257019, -4.487848], [122.224892, -4.476355], [122.174736, -4.514592], [122.082832, -4.536929], [122.025444, -4.649319], [122.023575, -4.716242], [122.04731, -4.770176], [122.108398, -4.812253], [122.079865, -4.843765], [121.992233, -4.894716], [121.904724, -4.88616], [121.818916, -4.84867], [121.808197, -4.830569], [121.724449, -4.830998], [121.662598, -4.848654], [121.651039, -4.805225], [121.56263, -4.786319], [121.455299, -4.681352], [121.45945, -4.585207], [121.506104, -4.435465], [121.507233, -4.331302], [121.522499, -4.277308], [121.564728, -4.245612], [121.608521, -4.13802], [121.599144, -4.055925], [121.499374, -4.014913], [121.337173, -3.98036], [121.293785, -3.888254], [121.226234, -3.822368], [121.181694, -3.828741], [121.061172, -3.703674], [121.020912, -3.690099], [120.910744, -3.582204], [120.876328, -3.525793], [120.858788, -3.440268], [120.928894, -3.342], [120.95388, -3.329225], [120.966698, -3.26637], [121.016693, -3.244607], [121.051331, -3.184905], [121.056152, -3.070598], [121.084557, -2.923684], [121.071167, -2.89214], [120.98423, -2.835341]]], [[[122.97496, -5.080378], [122.974899, -5.114667], [122.942909, -5.160937], [122.962776, -5.195495], [123.032532, -5.13616], [123.085037, -5.172699], [123.151733, -5.246449], [123.176643, -5.245639], [123.21479, -5.304791], [123.135201, -5.395737], [123.014626, -5.44086], [122.972809, -5.394393], [122.921967, -5.43637], [122.888062, -5.441972], [122.846359, -5.485299], [122.897339, -5.518404], [122.897095, -5.56276], [122.815216, -5.65809], [122.797371, -5.695441], [122.744087, -5.637722], [122.661079, -5.689842], [122.623024, -5.679935], [122.578278, -5.571494], [122.563545, -5.480018], [122.647797, -5.425014], [122.617264, -5.403909], [122.646088, -5.356668], [122.651276, -5.326329], [122.682716, -5.320218], [122.732628, -5.241536], [122.793892, -5.241115], [122.806274, -5.200619], [122.737282, -5.170575], [122.788528, -5.106222], [122.80249, -5.037634], [122.768929, -5.008087], [122.811577, -4.978685], [122.832375, -4.890354], [122.807869, -4.866568], [122.858742, -4.783739], [122.831207, -4.679556], [122.850807, -4.590418], [122.910202, -4.460138], [123.040962, -4.370708], [123.080978, -4.45977], [123.136269, -4.483249], [123.199295, -4.605664], [123.21109, -4.722411], [123.201141, -4.780681], [123.171539, -4.834829], [123.149704, -4.735183], [123.103752, -4.713612], [123.038658, -4.800051], [122.993774, -4.828905], [123.001671, -4.93299], [122.969612, -4.950684], [122.955971, -5.000822], [122.97496, -5.080378]]], [[[122.311989, -5.189582], [122.322166, -5.108933], [122.382103, -5.084469], [122.377975, -4.944457], [122.353973, -4.920957], [122.321449, -4.834823], [122.374245, -4.743024], [122.451523, -4.74067], [122.536934, -4.704957], [122.596466, -4.641494], [122.668556, -4.609775], [122.730896, -4.638964], [122.721161, -4.689926], [122.747383, -4.792154], [122.727425, -4.832773], [122.762848, -4.887722], [122.735123, -4.955379], [122.679199, -5.035037], [122.637512, -5.059143], [122.58609, -5.182532], [122.637917, -5.2589], [122.640091, -5.352726], [122.599274, -5.35376], [122.592781, -5.388764], [122.545418, -5.438321], [122.511826, -5.402669], [122.539757, -5.326673], [122.524986, -5.288412], [122.481499, -5.295955], [122.495522, -5.34572], [122.463638, -5.400284], [122.363136, -5.385505], [122.275864, -5.388109], [122.268753, -5.306668], [122.315941, -5.233175], [122.311989, -5.189582]]], [[[121.805817, -5.245513], [121.808357, -5.201829], [121.843086, -5.139951], [121.859879, -5.074867], [121.930122, -5.102027], [121.94725, -5.05961], [121.986343, -5.092185], [121.992439, -5.15234], [122.026848, -5.14409], [122.060753, -5.18434], [122.051247, -5.260043], [122.043472, -5.455512], [122.029358, -5.46955], [121.944969, -5.474207], [121.945465, -5.446015], [121.875435, -5.380198], [121.802193, -5.27901], [121.805817, -5.245513]]], [[[123.003357, -3.999794], [123.03022, -3.981664], [123.086868, -4.022165], [123.144112, -4.010673], [123.215721, -4.022439], [123.254143, -4.066495], [123.254288, -4.114], [123.149765, -4.243471], [123.118874, -4.261611], [123.073792, -4.249185], [122.996155, -4.201651], [122.945335, -4.099027], [122.980415, -4.061724], [123.003357, -3.999794]]], [[[123.537064, -5.338479], [123.51709, -5.270007], [123.581436, -5.249413], [123.647369, -5.299086], [123.618355, -5.385718], [123.581528, -5.386153], [123.537064, -5.338479]]], [[[124.07579, -5.99996], [123.987404, -5.965688], [123.973602, -5.935432], [123.991692, -5.87584], [124.050156, -5.91096], [124.07579, -5.99996]]], [[[123.092873, -3.570833], [123.161133, -3.560991], [123.181412, -3.602412], [123.133232, -3.610474], [123.113304, -3.638883], [123.045197, -3.594425], [123.092873, -3.570833]]], [[[123.721954, -5.477765], [123.767891, -5.50372], [123.827209, -5.571645], [123.784508, -5.591027], [123.718681, -5.512402], [123.721954, -5.477765]]], [[[123.959496, -5.727983], [123.997734, -5.768229], [123.928597, -5.776584], [123.896194, -5.737903], [123.959496, -5.727983]]], [[[122.547577, -5.634616], [122.532173, -5.690142], [122.487648, -5.661558], [122.507607, -5.62051], [122.547577, -5.634616]]], [[[122.417923, -3.397853], [122.470146, -3.466125], [122.436958, -3.505473], [122.400879, -3.439657], [122.417923, -3.397853]]], [[[123.062531, -4.839228], [123.079178, -4.794402], [123.115738, -4.797104], [123.108261, -4.845974], [123.062531, -4.839228]]]]}, "id": 74, "properties": {"ID": 4, "kode": 74, "Propinsi": "SULAWESI TENGGARA", "SUMBER": "Peta Dasar BAKOSURTANAL Skala 1 : 250.000", "Provinsi": "Sulawesi Tenggara"}}, {"type": "Feature", "geometry": {"type": "MultiPolygon", "coordinates": [[[[119.591652, -4.55424], [119.59671, -4.416243], [119.639999, -4.302221], [119.594444, -4.240834], [119.624649, -4.236449], [119.612373, -4.203055], [119.638023, -4.173174], [119.605278, -4.083888], [119.641388, -3.961668], [119.583611, -3.976388], [119.583885, -4.022222], [119.613777, -4.00442], [119.586563, -4.039411], [119.570557, -3.948335], [119.451942, -3.713609], [119.46389, -3.639999], [119.516594, -3.571808], [119.435226, -3.345711], [119.43866, -3.266739], [119.389656, -3.21247], [119.420471, -3.176799], [119.484596, -3.18489], [119.545479, -3.13092], [119.629059, -3.121519], [119.534187, -2.94152], [119.5252, -2.793351], [119.493317, -2.74063], [119.643578, -2.75641], [119.727882, -2.72763], [119.76104, -2.68366], [119.751106, -2.604909], [119.700089, -2.553469], [119.720917, -2.500069], [119.689026, -2.437739], [119.715866, -2.39282], [119.690308, -2.33612], [119.596573, -2.294341], [119.629776, -2.163379], [119.733871, -2.07421], [119.880997, -2.047519], [119.99604, -1.963381], [120.093803, -1.96225], [120.122032, -2.007521], [120.336891, -2.053441], [120.399567, -1.884479], [120.581871, -2.121749], [120.706909, -2.212381], [120.975296, -2.2411], [121.164711, -2.33201], [121.328552, -2.372219], [121.504707, -2.490139], [121.71553, -2.558119], [121.800636, -2.709759], [121.742439, -2.735281], [121.656937, -2.878121], [121.57132, -2.912889], [121.497948, -2.98648], [121.367706, -3.01218], [121.305733, -3.069639], [121.269417, -3.06436], [121.215973, -2.974619], [121.172737, -2.96713], [121.101349, -2.77383], [120.985046, -2.83115], [120.972656, -2.81988], [121.09816, -2.71633], [121.046944, -2.701666], [121.058823, -2.672917], [121.036942, -2.69417], [121.073677, -2.642818], [121.054787, -2.639081], [121.073402, -2.616626], [121.056114, -2.580555], [121.072212, -2.61561], [121.054573, -2.651976], [121.031387, -2.659723], [121.041389, -2.624166], [121.026947, -2.65389], [121.010429, -2.614999], [121.006386, -2.679166], [120.976669, -2.666945], [120.98764, -2.639878], [120.970894, -2.670767], [120.945709, -2.64595], [120.857224, -2.658057], [120.793892, -2.62389], [120.799156, -2.60833], [120.666107, -2.639441], [120.632774, -2.683056], [120.568611, -2.691945], [120.582497, -2.669719], [120.564163, -2.670555], [120.569725, -2.711666], [120.453331, -2.824721], [120.353615, -2.860277], [120.256111, -2.945834], [120.196831, -2.951605], [120.189453, -2.967989], [120.254723, -3.05167], [120.255547, -3.16028], [120.382217, -3.202221], [120.389168, -3.250832], [120.421249, -3.264168], [120.379723, -3.503611], [120.418892, -3.573057], [120.413612, -3.667221], [120.442497, -3.739167], [120.358917, -3.849969], [120.33667, -3.9375], [120.361115, -4.02389], [120.330696, -4.104164], [120.380867, -4.163501], [120.365067, -4.298959], [120.393501, -4.332041], [120.348145, -4.425264], [120.402496, -4.480834], [120.377472, -4.512521], [120.397186, -4.600131], [120.458572, -4.658292], [120.400108, -4.710047], [120.383614, -4.838332], [120.303391, -4.87538], [120.300552, -5.055555], [120.271667, -5.14394], [120.35833, -5.331111], [120.404861, -5.341689], [120.472504, -5.623055], [120.314857, -5.507519], [120.13028, -5.589722], [119.935448, -5.544427], [119.840088, -5.635554], [119.849953, -5.664043], [119.785614, -5.701977], [119.646667, -5.682223], [119.656113, -5.640278], [119.611389, -5.6125], [119.558998, -5.650539], [119.552902, -5.595309], [119.561386, -5.618332], [119.579445, -5.603612], [119.512871, -5.56993], [119.514442, -5.53444], [119.460327, -5.576923], [119.487984, -5.604735], [119.438889, -5.596667], [119.430275, -5.487501], [119.396111, -5.432501], [119.362976, -5.41842], [119.353889, -5.325833], [119.409447, -5.112136], [119.498611, -5.116945], [119.450279, -5.108611], [119.471939, -5.077922], [119.450279, -5.0975], [119.447716, -5.086544], [119.525558, -4.923611], [119.513885, -4.886388], [119.56147, -4.891851], [119.506111, -4.868611], [119.481392, -4.750834], [119.591652, -4.55424]]], [[[120.431389, -5.63944], [120.445831, -5.646111], [120.429443, -5.661112], [120.419998, -5.649723], [120.431389, -5.63944]]], [[[118.154724, -5.128056], [118.138641, -5.126358], [118.147217, -5.114721], [118.154724, -5.128056]]], [[[117.661667, -5.175556], [117.681938, -5.196813], [117.656113, -5.222223], [117.661667, -5.175556]]], [[[117.929443, -5.351667], [117.951668, -5.383333], [117.947777, -5.408611], [117.926392, -5.389443], [117.929443, -5.351667]]], [[[119.312775, -5.511667], [119.31591, -5.487446], [119.298058, -5.498612], [119.297501, -5.46778], [119.26667, -5.45472], [119.301949, -5.456808], [119.299721, -5.493611], [119.320763, -5.496492], [119.310837, -5.519719], [119.291809, -5.512451], [119.29583, -5.53139], [119.257767, -5.52556], [119.248337, -5.494999], [119.276108, -5.501112], [119.279167, -5.471939], [119.27906, -5.4938], [119.312775, -5.511667]]], [[[120.489166, -5.738329], [120.492775, -5.751945], [120.474442, -5.750835], [120.489166, -5.738329]]], [[[120.458115, -6.38956], [120.480293, -6.281098], [120.443039, -6.2589], [120.445557, -6.16514], [120.426506, -6.179759], [120.466187, -6.093651], [120.445137, -5.956089], [120.461388, -5.792778], [120.493111, -5.7675], [120.568466, -6.055651], [120.524467, -6.222331], [120.53833, -6.327239], [120.495674, -6.391684], [120.509979, -6.443737], [120.483971, -6.49799], [120.458115, -6.38956]]], [[[120.429733, -6.10583], [120.414795, -6.20879], [120.392365, -6.178013], [120.429733, -6.10583]]], [[[120.992241, -6.504577], [120.979668, -6.504577], [121.00132, -6.493719], [120.992241, -6.504577]]], [[[120.438942, -6.59793], [120.440979, -6.641493], [120.426071, -6.641673], [120.420059, -6.596825], [120.438942, -6.59793]]], [[[120.800095, -6.788329], [120.81385, -6.832688], [120.795654, -6.866649], [120.778847, -6.799716], [120.800095, -6.788329]]], [[[120.629715, -7.000628], [120.736809, -7.075277], [120.785904, -7.059813], [120.767731, -7.134739], [120.631943, -7.133331], [120.63475, -7.099226], [120.603889, -7.072223], [120.629715, -7.000628]]], [[[120.560486, -7.07302], [120.611656, -7.08917], [120.563332, -7.093056], [120.560486, -7.07302]]], [[[121.751389, -7.222219], [121.747498, -7.238333], [121.738335, -7.229166], [121.751389, -7.222219]]], [[[120.906303, -7.277767], [121.003609, -7.281388], [121.063889, -7.300556], [121, -7.33333], [120.79528, -7.270555], [120.906303, -7.277767]]], [[[121.766113, -7.261667], [121.772781, -7.286945], [121.727501, -7.294445], [121.730278, -7.277778], [121.766113, -7.261667]]], [[[121.096947, -7.302219], [121.168335, -7.354165], [121.099167, -7.398055], [121.059723, -7.372499], [121.096947, -7.302219]]], [[[121.819725, -7.330278], [121.840279, -7.350555], [121.823608, -7.39694], [121.753891, -7.423055], [121.756386, -7.347777], [121.819725, -7.330278]]], [[[121.797005, -7.472008], [121.797501, -7.488609], [121.722778, -7.491661], [121.797005, -7.472008]]], [[[120.423058, -5.04861], [120.427635, -5.058155], [120.412498, -5.051388], [120.423058, -5.04861]]]]}, "id": 73, "properties": {"ID": 13, "kode": 73, "Propinsi": "SULAWESI SELATAN", "SUMBER": "Peta Dasar BAKOSURTANAL Skala 1 : 250.000", "Provinsi": "Sulawesi Selatan"}}, {"type": "Feature", "geometry": {"type": "MultiPolygon", "coordinates": [[[[119.16658, -3.487701], [119.108658, -3.516343], [119.021446, -3.512368], [118.996391, -3.564717], [118.967438, -3.545067], [118.936943, -3.570281], [118.906113, -3.525279], [118.845711, -3.379756], [118.85833, -3.30111], [118.828476, -3.168945], [118.775139, -3.10422], [118.796806, -3.070608], [118.838623, -3.081085], [118.886108, -2.890834], [118.84639, -2.849721], [118.769447, -2.867222], [118.756668, -2.785], [118.818298, -2.61948], [118.868889, -2.679672], [118.91111, -2.666111], [119.030479, -2.58205], [119.044724, -2.506667], [119.144447, -2.470001], [119.121391, -2.319721], [119.144722, -2.200281], [119.187775, -2.151111], [119.211937, -1.99778], [119.288063, -1.9525], [119.330559, -1.962223], [119.363609, -1.853891], [119.311111, -1.798611], [119.28167, -1.68972], [119.325836, -1.589167], [119.28833, -1.450555], [119.291656, -1.390281], [119.332779, -1.349445], [119.30278, -1.273612], [119.339722, -1.17], [119.376663, -1.165556], [119.464722, -1.06861], [119.553627, -0.860949], [119.550926, -1.008439], [119.584396, -1.118209], [119.610977, -1.12573], [119.581657, -1.25812], [119.474258, -1.287229], [119.467911, -1.306169], [119.508636, -1.31016], [119.423126, -1.356679], [119.529373, -1.427779], [119.623283, -1.395169], [119.695396, -1.450899], [119.659027, -1.50289], [119.777779, -1.692499], [119.756668, -1.755519], [119.867416, -1.76982], [119.909172, -1.834719], [119.860428, -1.87573], [119.873543, -1.948739], [119.817101, -2.044529], [119.727409, -2.07925], [119.61335, -2.204939], [119.596573, -2.294341], [119.690308, -2.33612], [119.715866, -2.39282], [119.689026, -2.437739], [119.720917, -2.500069], [119.700089, -2.553469], [119.751106, -2.604909], [119.761757, -2.677659], [119.73996, -2.71976], [119.643578, -2.75641], [119.493317, -2.74063], [119.5252, -2.793351], [119.534187, -2.94152], [119.62973, -3.113259], [119.539963, -3.133521], [119.484596, -3.18489], [119.396072, -3.19317], [119.490921, -3.48397], [119.476357, -3.504407], [119.427223, -3.45972], [119.373055, -3.463334], [119.304726, -3.425277], [119.236168, -3.479168], [119.16658, -3.487701]]], [[[118.891388, -2.612777], [118.888885, -2.653612], [118.877777, -2.62639], [118.891388, -2.612777]]]]}, "id": 76, "properties": {"ID": 77, "kode": 76, "Propinsi": "SULAWESI BARAT", "SUMBER": "Peta Dasar BAKOSURTANAL Skala 1 : 250.000", "Provinsi": "Sulawesi Barat"}}, {"type": "Feature", "geometry": {"type": "MultiPolygon", "coordinates": [[[[119.551262, -0.861102], [119.620102, -0.827921], [119.628067, -0.795006], [119.680214, -0.767804], [119.672073, -0.701232], [119.725906, -0.65805], [119.761536, -0.681504], [119.810547, -0.824481], [119.844048, -0.881364], [119.877937, -0.860083], [119.876678, -0.800739], [119.857048, -0.776077], [119.858978, -0.711951], [119.82312, -0.687051], [119.759331, -0.489319], [119.755516, -0.43625], [119.777512, -0.278784], [119.817886, -0.188819], [119.793221, -0.1203], [119.730637, -0.144836], [119.675064, -0.120693], [119.606422, -0.011014], [119.719109, -0.007734], [119.767677, -0.076805], [119.777496, -0.112435], [119.836311, -0.110336], [119.888161, -0.012285], [119.869308, 0.103943], [119.773888, 0.195469], [119.803307, 0.235098], [119.886375, 0.210903], [119.906456, 0.230215], [119.849724, 0.35105], [119.889595, 0.39088], [119.87677, 0.437173], [119.912537, 0.474808], [119.999992, 0.48103], [120.045471, 0.508192], [120.036507, 0.605598], [120.017326, 0.662879], [120.07708, 0.73949], [120.131271, 0.739655], [120.231522, 0.792128], [120.245316, 0.836357], [120.234756, 0.882558], [120.246323, 0.957992], [120.347801, 0.986282], [120.328423, 0.85386], [120.375938, 0.833208], [120.388908, 0.801644], [120.475189, 0.778041], [120.500801, 0.794271], [120.577087, 0.769187], [120.600052, 0.806312], [120.606506, 0.872798], [120.67897, 0.960633], [120.721901, 0.959311], [120.78904, 1.036012], [120.797989, 1.093499], [120.776329, 1.112198], [120.824081, 1.183676], [120.808014, 1.271], [120.83316, 1.320694], [120.92836, 1.329284], [120.976059, 1.348508], [121.065201, 1.308341], [121.100578, 1.321008], [121.232872, 1.241835], [121.301094, 1.256887], [121.355553, 1.253551], [121.407257, 1.269449], [121.44651, 1.318008], [121.470947, 1.272841], [121.43441, 1.230314], [121.431061, 1.172257], [121.483253, 1.112933], [121.561028, 1.069681], [121.707085, 1.060967], [121.858894, 1.099807], [121.888367, 1.086147], [121.936829, 1.106721], [121.960297, 1.046818], [121.991379, 1.027292], [122.105263, 1.073977], [122.166107, 1.037744], [122.188141, 1.045298], [122.067818, 0.997213], [122.02533, 0.949058], [121.993927, 0.94102], [121.968292, 0.894658], [121.925529, 0.946584], [121.882187, 0.9727], [121.831047, 0.963612], [121.754608, 0.926077], [121.673096, 0.914232], [121.620621, 0.883505], [121.499672, 0.850688], [121.386032, 0.870693], [121.294579, 0.82408], [121.260277, 0.78299], [121.225578, 0.708211], [121.168579, 0.690562], [121.247383, 0.597502], [121.35453, 0.571319], [121.345665, 0.474487], [121.296829, 0.496804], [121.246132, 0.462963], [121.183212, 0.459422], [121.152977, 0.409079], [121.088135, 0.397582], [121.032486, 0.439164], [120.905403, 0.393952], [120.861519, 0.438808], [120.730331, 0.473514], [120.698936, 0.508861], [120.606247, 0.518789], [120.528976, 0.514094], [120.364449, 0.452948], [120.304108, 0.413597], [120.24424, 0.338138], [120.211548, 0.269989], [120.1577, 0.222198], [120.121338, 0.157835], [120.132538, 0.125113], [120.103745, 0.087791], [120.104767, 0.006305], [120.089226, -0.040358], [120.031914, -0.088148], [120.040031, -0.140389], [120.008202, -0.176373], [120.00975, -0.29075], [120.029526, -0.303267], [120.039871, -0.39192], [120.070221, -0.443157], [120.046967, -0.490172], [120.054924, -0.630386], [120.102646, -0.729293], [120.218369, -0.845644], [120.245003, -0.892794], [120.31295, -0.967754], [120.40947, -0.924922], [120.458672, -0.993287], [120.505188, -0.999639], [120.591782, -1.168508], [120.569252, -1.203504], [120.570587, -1.253602], [120.637337, -1.313295], [120.6409, -1.37013], [120.690422, -1.420703], [120.729805, -1.384694], [120.842125, -1.368169], [120.858665, -1.41577], [120.959259, -1.414844], [120.978638, -1.403112], [121.050652, -1.441153], [121.117386, -1.423487], [121.201614, -1.279033], [121.21608, -1.211487], [121.277924, -1.157306], [121.300293, -1.103074], [121.391403, -1.007929], [121.446655, -0.974778], [121.472191, -0.905653], [121.537224, -0.876336], [121.587563, -0.869395], [121.606941, -0.829822], [121.65081, -0.806444], [121.667122, -0.85892], [121.654663, -0.911058], [121.768211, -0.973061], [121.79818, -0.96249], [121.949707, -0.997026], [122.005463, -0.941112], [122.101791, -0.963619], [122.140907, -0.926582], [122.151131, -0.864294], [122.202255, -0.790099], [122.312874, -0.79761], [122.370705, -0.778494], [122.417145, -0.786604], [122.455696, -0.763], [122.526512, -0.787241], [122.627403, -0.767298], [122.685989, -0.814966], [122.72934, -0.814772], [122.77961, -0.777899], [122.914139, -0.768896], [122.879929, -0.722777], [122.762383, -0.702591], [122.811676, -0.634691], [122.838959, -0.646788], [122.936707, -0.627541], [122.956444, -0.648756], [123.014275, -0.603136], [123.113899, -0.574524], [123.17347, -0.589315], [123.19577, -0.574752], [123.273453, -0.591004], [123.409821, -0.660818], [123.381783, -0.675253], [123.452087, -0.765581], [123.383072, -0.931395], [123.390602, -0.960441], [123.34938, -1.03729], [123.263397, -1.05125], [123.228004, -1.006776], [123.144241, -0.943434], [123.147484, -0.889334], [123.101006, -0.840044], [123.061485, -0.869743], [123.056534, -0.902925], [122.978981, -0.905142], [122.890213, -0.933499], [122.859497, -0.927227], [122.790009, -0.950041], [122.794479, -0.999178], [122.723732, -1.085598], [122.708473, -1.134077], [122.666412, -1.135592], [122.63237, -1.171871], [122.618118, -1.238488], [122.560532, -1.262113], [122.556595, -1.30897], [122.495201, -1.351943], [122.483078, -1.388393], [122.415749, -1.437588], [122.390541, -1.48866], [122.316772, -1.522827], [122.220932, -1.595521], [122.023979, -1.613491], [121.959595, -1.675115], [121.896263, -1.692171], [121.8778, -1.675358], [121.809525, -1.730459], [121.806778, -1.760933], [121.749054, -1.887227], [121.684959, -1.943017], [121.634857, -1.956984], [121.565193, -1.949181], [121.525887, -1.893084], [121.462646, -1.864683], [121.451309, -1.804206], [121.372246, -1.809819], [121.322395, -1.77549], [121.295853, -1.7989], [121.291077, -1.858329], [121.333565, -1.87836], [121.317474, -1.937669], [121.375557, -1.963591], [121.418983, -1.939971], [121.447121, -1.985441], [121.525383, -2.049364], [121.549866, -2.171898], [121.609505, -2.189377], [121.680809, -2.181712], [121.724426, -2.20448], [121.795708, -2.291534], [121.821411, -2.294693], [121.839111, -2.348679], [121.901405, -2.429927], [121.957466, -2.521174], [121.986511, -2.601621], [122.033119, -2.65964], [122.004349, -2.712314], [122.085533, -2.788894], [122.13887, -2.790327], [122.181404, -2.823496], [122.180618, -2.869903], [122.292221, -2.890996], [122.319016, -2.914855], [122.305008, -2.956492], [122.25071, -3.022647], [122.33329, -3.083526], [122.383438, -3.143221], [122.412956, -3.128048], [122.486099, -3.180516], [122.425407, -3.203624], [122.428352, -3.248899], [122.384857, -3.258627], [122.323967, -3.240767], [122.312798, -3.271106], [122.285965, -3.253934], [122.294449, -3.195179], [122.274086, -3.138374], [122.241173, -3.138603], [122.190437, -3.094346], [122.191582, -3.032609], [122.130539, -3.015782], [122.090057, -2.961801], [122.000359, -2.962439], [121.940231, -2.932159], [121.899376, -2.80432], [121.872299, -2.777285], [121.81871, -2.763949], [121.797012, -2.710249], [121.74305, -2.608478], [121.700546, -2.548773], [121.639519, -2.535414], [121.56945, -2.49626], [121.510712, -2.495261], [121.391274, -2.409437], [121.304352, -2.365168], [121.22654, -2.352717], [121.15377, -2.328169], [120.953987, -2.237536], [120.821678, -2.207236], [120.74411, -2.228615], [120.70327, -2.212562], [120.595131, -2.138367], [120.480461, -1.998821], [120.469643, -1.962179], [120.401123, -1.888412], [120.383064, -1.890121], [120.354927, -1.999104], [120.329796, -2.054484], [120.26606, -2.022335], [120.181938, -2.029071], [120.11956, -2.008276], [120.101303, -1.966918], [119.994949, -1.963335], [119.963005, -2.000149], [119.887428, -2.045559], [119.83773, -2.051188], [119.815765, -2.015383], [119.848412, -1.965073], [119.869141, -1.892153], [119.907639, -1.835855], [119.902878, -1.796736], [119.865753, -1.770845], [119.762688, -1.764873], [119.775932, -1.693306], [119.732208, -1.607528], [119.669128, -1.545653], [119.659355, -1.496283], [119.696596, -1.459508], [119.639478, -1.405974], [119.516769, -1.436377], [119.497852, -1.394083], [119.450577, -1.395969], [119.431, -1.336197], [119.505386, -1.30987], [119.505157, -1.277503], [119.570869, -1.272736], [119.603714, -1.166935], [119.567673, -1.02293], [119.551262, -0.861102]], [[120.531853, -1.873765], [120.528267, -1.913569], [120.564026, -1.967635], [120.606293, -1.995662], [120.631844, -2.059787], [120.685783, -2.066975], [120.707199, -2.024403], [120.672348, -1.972287], [120.657585, -1.881136], [120.599411, -1.790897], [120.530083, -1.7894], [120.531853, -1.873765]]], [[[123.169479, -1.634564], [123.106308, -1.605504], [123.103592, -1.583008], [123.164406, -1.543593], [123.185196, -1.513129], [123.157669, -1.31768], [123.103828, -1.349413], [123.032669, -1.453553], [123.021568, -1.495429], [122.952698, -1.550409], [122.909073, -1.605003], [122.865974, -1.600239], [122.820557, -1.480622], [122.78537, -1.451908], [122.791542, -1.383733], [122.833527, -1.271164], [122.8769, -1.236489], [122.904968, -1.184323], [122.97934, -1.202721], [123.109581, -1.169781], [123.145302, -1.208792], [123.186867, -1.162364], [123.2453, -1.232014], [123.191849, -1.327573], [123.248268, -1.394754], [123.284081, -1.361707], [123.360313, -1.231369], [123.440392, -1.235385], [123.48597, -1.2709], [123.556793, -1.288018], [123.534393, -1.366252], [123.539093, -1.397947], [123.51049, -1.458997], [123.459213, -1.518635], [123.407463, -1.52446], [123.367729, -1.503777], [123.300964, -1.414419], [123.26075, -1.470734], [123.229568, -1.599808], [123.169479, -1.634564]]], [[[123.476669, -1.656222], [123.498703, -1.588354], [123.477654, -1.574449], [123.501411, -1.507485], [123.547562, -1.509387], [123.571487, -1.607135], [123.627731, -1.62471], [123.615463, -1.694854], [123.576256, -1.726763], [123.492409, -1.71136], [123.476669, -1.656222]]], [[[121.914711, -0.453557], [121.917236, -0.519645], [121.834412, -0.496036], [121.73484, -0.512026], [121.701439, -0.564406], [121.662193, -0.558711], [121.694901, -0.492329], [121.754837, -0.431368], [121.783325, -0.451543], [121.843658, -0.414951], [121.914711, -0.453557]]], [[[121.96521, -0.420374], [121.916389, -0.440287], [121.8722, -0.416031], [121.872589, -0.35888], [122.054825, -0.352623], [122.053284, -0.389249], [122.059982, -0.404818], [121.96521, -0.420374]]], [[[123.135948, -1.780573], [123.154221, -1.820214], [123.140778, -1.866415], [123.063591, -1.920046], [123.062195, -1.831136], [123.092239, -1.770375], [123.135948, -1.780573]]], [[[122.096016, -0.40342], [122.077263, -0.429949], [122.056259, -0.36745], [122.0662, -0.311042], [122.098, -0.295803], [122.149895, -0.39855], [122.096016, -0.40342]]], [[[123.86039, -1.997033], [123.820366, -2.012111], [123.789017, -1.979887], [123.772453, -1.903466], [123.80835, -1.893784], [123.850426, -1.945709], [123.86039, -1.997033]]], [[[122.362381, -0.362636], [122.29538, -0.268201], [122.306877, -0.23959], [122.375923, -0.284257], [122.362381, -0.362636]]], [[[121.620766, -0.211886], [121.562981, -0.181929], [121.601471, -0.129324], [121.644028, -0.13074], [121.649246, -0.193653], [121.620766, -0.211886]]], [[[123.31263, -1.720765], [123.360176, -1.677891], [123.39093, -1.708563], [123.314911, -1.784292], [123.267799, -1.787167], [123.31263, -1.720765]]], [[[123.325485, -1.200815], [123.313316, -1.265722], [123.274651, -1.221891], [123.325485, -1.200815]]]]}, "id": 72, "properties": {"ID": 20, "kode": 72, "Propinsi": "SULAWESI TENGAH", "SUMBER": "Peta Dasar BAKOSURTANAL Skala 1 : 250.000", "Provinsi": "Sulawesi Tengah"}}, {"type": "Feature", "geometry": {"type": "MultiPolygon", "coordinates": [[[[123.465736, 0.330308], [123.51918, 0.449638], [123.527229, 0.57175], [123.494171, 0.636227], [123.368813, 0.661965], [123.257477, 0.749624], [123.240799, 0.83596], [123.1465, 0.881753], [123.117294, 0.92862], [123.183815, 0.906404], [123.222198, 0.951997], [123.266968, 0.919489], [123.381279, 0.916597], [123.395981, 0.90392], [123.553619, 0.891023], [123.605904, 0.906905], [123.732872, 0.865901], [123.784668, 0.835112], [123.920517, 0.849172], [124.075935, 0.923523], [124.137665, 0.928344], [124.197304, 0.986574], [124.2836, 1.003263], [124.308136, 1.021709], [124.357475, 1.136346], [124.345238, 1.158185], [124.41391, 1.196132], [124.489716, 1.18741], [124.544029, 1.214211], [124.583717, 1.194596], [124.610794, 1.234678], [124.589989, 1.269574], [124.51638, 1.302175], [124.533218, 1.356623], [124.57637, 1.400202], [124.626411, 1.418952], [124.674355, 1.396016], [124.746124, 1.4518], [124.829369, 1.468621], [124.845001, 1.523865], [124.806114, 1.5772], [124.86174, 1.604014], [124.923584, 1.665811], [124.961983, 1.730148], [124.994385, 1.754779], [125.026825, 1.735152], [125.014381, 1.693482], [125.111847, 1.663243], [125.154076, 1.579512], [125.210403, 1.550894], [125.242546, 1.505849], [125.229156, 1.461808], [125.192459, 1.438576], [125.147789, 1.439471], [125.07621, 1.367611], [125.063248, 1.296257], [125.020775, 1.146533], [124.969742, 1.069223], [124.898026, 0.999992], [124.883057, 0.963803], [124.788437, 0.943151], [124.763794, 0.888915], [124.725716, 0.893974], [124.689034, 0.829098], [124.625069, 0.7633], [124.63192, 0.712631], [124.599297, 0.706245], [124.554062, 0.635617], [124.560966, 0.58909], [124.495369, 0.548974], [124.512131, 0.473545], [124.376762, 0.446159], [124.32338, 0.442996], [124.281578, 0.404371], [124.08503, 0.38917], [124.065895, 0.36997], [123.998734, 0.376837], [123.978569, 0.360976], [123.814941, 0.337797], [123.781235, 0.312628], [123.74054, 0.324472], [123.683281, 0.30451], [123.590683, 0.310139], [123.548042, 0.324057], [123.49649, 0.30875], [123.465736, 0.330308]]], [[[126.688919, 4.37135], [126.715935, 4.46499], [126.720451, 4.525645], [126.750732, 4.560368], [126.805336, 4.546466], [126.855713, 4.498095], [126.868073, 4.445125], [126.851578, 4.38552], [126.9142, 4.283608], [126.792336, 4.169112], [126.80732, 4.123262], [126.799889, 4.058125], [126.761673, 4.012424], [126.699921, 4.021832], [126.664978, 4.057411], [126.733093, 4.127583], [126.788681, 4.253698], [126.714409, 4.282143], [126.688919, 4.37135]]], [[[125.650261, 3.509186], [125.678253, 3.424114], [125.640015, 3.37788], [125.523735, 3.433616], [125.485748, 3.47762], [125.51297, 3.5587], [125.482903, 3.598102], [125.442543, 3.615681], [125.398689, 3.663957], [125.422775, 3.724515], [125.509193, 3.716769], [125.597404, 3.60578], [125.573135, 3.580348], [125.623062, 3.517487], [125.650261, 3.509186]]], [[[125.379097, 2.797428], [125.422615, 2.805127], [125.449631, 2.75286], [125.407181, 2.726557], [125.357231, 2.737662], [125.379097, 2.797428]]], [[[126.723343, 3.903965], [126.678856, 3.872737], [126.667656, 3.946121], [126.704918, 3.95399], [126.723343, 3.903965]]], [[[126.82341, 3.745728], [126.790398, 3.759194], [126.753197, 3.806978], [126.742836, 3.864257], [126.798347, 3.854081], [126.834442, 3.81489], [126.849304, 3.770062], [126.82341, 3.745728]]], [[[125.37558, 2.35449], [125.434448, 2.386659], [125.4674, 2.352841], [125.439598, 2.319543], [125.37558, 2.35449]]], [[[125.129044, 1.830128], [125.181602, 1.774388], [125.132607, 1.753805], [125.129044, 1.830128]]]]}, "id": 71, "properties": {"ID": 22, "kode": 71, "Propinsi": "SULAWESI UTARA", "SUMBER": "Peta Dasar BAKOSURTANAL Skala 1 : 250.000", "Provinsi": "Sulawesi Utara"}}]}