{"crs": {}, "features": [{"properties": null, "type": "Feature", "geometry": {"type": "MultiPolygon", "coordinates": [[[[121.892703299323, -0.424361466577668], [121.8753, -0.4125], [121.8703, -0.3954], [121.8761, -0.3916], [121.8589, -0.3827], [121.8622, -0.3694], [121.8742, -0.3717], [121.8844, -0.3605], [121.872, -0.3591], [121.8838, -0.3441], [121.8981, -0.3553], [121.8874, -0.3431], [121.9021, -0.3338], [121.907222341671, -0.339500670569452], [121.91, -0.3388], [121.9108, -0.3441], [121.916, -0.3376], [121.9154, -0.3508], [121.925, -0.3521], [121.9243, -0.3696], [121.9314, -0.3654], [121.9399, -0.3718], [121.9346, -0.3582], [121.9413, -0.3642], [121.9457, -0.356], [121.9488, -0.3653], [121.9519, -0.3528], [121.9609, -0.3693], [121.9578, -0.3558], [121.9672, -0.3633], [121.9713, -0.3538], [121.9575, -0.3494], [121.9612, -0.3434], [121.9482, -0.3492], [121.9493, -0.3343], [121.9351, -0.3455], [121.9248, -0.3354], [121.9307, -0.326], [121.9466, -0.3237], [121.9595, -0.3319], [121.9692, -0.3267], [121.972, -0.342], [121.9791, -0.3416], [121.968, -0.3438], [121.9722, -0.3481], [121.991, -0.3414], [121.9791, -0.3556], [121.9974, -0.3516], [122.0108, -0.3616], [122.012, -0.375], [122.025, -0.3661], [122.019, -0.3534], [122.0406, -0.3627], [122.0402, -0.339], [122.0446, -0.348], [122.06, -0.3491], [122.0538, -0.3573], [122.0615, -0.3722], [122.0545, -0.3726], [122.0631, -0.3798], [122.0568, -0.3877], [122.0682, -0.3963], [122.0613, -0.4076], [122.053, -0.4015], [122.0477, -0.4135], [122.0586, -0.4106], [122.0551, -0.4205], [122.0415, -0.4261], [122.0266, -0.4235], [122.0278, -0.4144], [122.0126, -0.4172], [122.0092, -0.3981], [122.0038, -0.4057], [122.0103, -0.4217], [122.0064, -0.416], [121.9998, -0.4247], [121.9868, -0.423], [121.9849, -0.416], [121.9773, -0.4253], [121.972, -0.4157], [121.9535, -0.4187], [121.9484, -0.4294], [121.933, -0.4266], [121.9275, -0.4362], [121.9111, -0.4369], [121.910103821151, -0.436221040114127], [121.8968, -0.4249], [121.892703299323, -0.424361466577668]], [[121.907222341671, -0.339500670569452], [121.8989, -0.3416], [121.9083, -0.3407], [121.907222341671, -0.339500670569452]]], [[[120.5133, 0.793], [120.5343, 0.7923], [120.5518, 0.7779], [120.5574, 0.7678], [120.554621503017, 0.76975523861766], [120.5481, 0.7552], [120.5959, 0.751], [120.5923, 0.7643], [120.5739, 0.7696], [120.5906, 0.7941], [120.5976, 0.7938], [120.5967, 0.8093], [120.6103, 0.8093], [120.613, 0.8209], [120.603, 0.8216], [120.5976, 0.8355], [120.6115, 0.8586], [120.6037, 0.872], [120.62, 0.8921], [120.6231, 0.9126], [120.6318, 0.9108], [120.6381, 0.919], [120.6353, 0.9395], [120.6706, 0.95], [120.6632, 0.9529], [120.6702, 0.9657], [120.6767, 0.9646], [120.6789, 0.9505], [120.689, 0.9535], [120.6807, 0.9612], [120.6926, 0.9568], [120.6959, 0.9659], [120.6787, 0.9701], [120.697, 0.9869], [120.7011, 0.9749], [120.7036, 0.9863], [120.7071, 0.9744], [120.7228, 0.9728], [120.7199, 0.9629], [120.7053, 0.9616], [120.7322, 0.9616], [120.725, 0.9712], [120.7307, 0.9686], [120.73, 0.9773], [120.7442, 0.9753], [120.7373, 0.9802], [120.7389, 0.9942], [120.7479, 0.9935], [120.7851, 1.0303], [120.8087, 1.0289], [120.8097, 1.0479], [120.7958, 1.0535], [120.8007, 1.082], [120.7769, 1.1108], [120.7909, 1.1379], [120.7882, 1.1641], [120.7973, 1.1579], [120.822, 1.1718], [120.8273, 1.192], [120.8274, 1.2051], [120.8184, 1.2058], [120.8103, 1.2193], [120.82, 1.2567], [120.8083, 1.2667], [120.8216, 1.2939], [120.8114, 1.2996], [120.8074, 1.3251], [120.8248, 1.325], [120.8385, 1.3126], [120.8633, 1.322], [120.869, 1.3177], [120.8887, 1.3279], [120.8914, 1.3507], [120.9034, 1.3567], [120.9152, 1.3372], [120.8994, 1.3342], [120.9058, 1.318], [120.8914, 1.326], [120.8958, 1.3179], [120.8852, 1.3167], [120.901, 1.3135], [120.8952, 1.3039], [120.911, 1.3085], [120.9184, 1.3261], [120.9283, 1.3186], [120.9301, 1.3305], [120.9217, 1.3306], [120.9422, 1.3504], [120.9956, 1.34], [121.0083, 1.326], [121.0255, 1.3277], [121.0627, 1.3028], [121.0796, 1.3195], [121.1001, 1.3164], [121.1556, 1.2848], [121.1775, 1.2679], [121.1767, 1.2605], [121.1843, 1.2656], [121.255, 1.2307], [121.2712, 1.2328], [121.2761, 1.2414], [121.2921, 1.2402], [121.3084, 1.2555], [121.3325, 1.2537], [121.3372, 1.2624], [121.3538, 1.2484], [121.4045, 1.2621], [121.4105, 1.2779], [121.4298, 1.2891], [121.4353, 1.308], [121.4626, 1.3087], [121.4711, 1.3008], [121.4644, 1.2836], [121.4721, 1.2626], [121.44, 1.2407], [121.4163, 1.2395], [121.4132, 1.2305], [121.4345, 1.2345], [121.4286, 1.2305], [121.4356, 1.2088], [121.4222, 1.186], [121.4838, 1.1081], [121.5582, 1.0622], [121.6021, 1.0547], [121.6127, 1.0621], [121.6324, 1.0611], [121.6481, 1.053], [121.6515, 1.04], [121.6549, 1.0651], [121.6786, 1.0654], [121.685, 1.072], [121.7084, 1.0509], [121.7058, 1.0385], [121.7173, 1.0438], [121.7001, 1.0682], [121.7106, 1.0818], [121.7301, 1.0767], [121.741, 1.0619], [121.7442, 1.0724], [121.7668, 1.0712], [121.7868, 1.0829], [121.8099, 1.0779], [121.8236, 1.0921], [121.8358, 1.0868], [121.8483, 1.0935], [121.8584, 1.0852], [121.8632, 1.0943], [121.8792, 1.0802], [121.9284, 1.1026], [121.9505, 1.0561], [121.9582, 1.0608], [121.9531, 1.041], [121.9818, 1.0234], [122.0417, 1.0476], [122.0533, 1.0663], [122.0592, 1.0642], [122.0559, 1.0727], [122.0653, 1.0744], [122.0701, 1.0703], [122.0634, 1.0643], [122.0747, 1.0595], [122.109, 1.0688], [122.1085, 1.0576], [122.1179, 1.0569], [122.1228, 1.0454], [122.1301, 1.0569], [122.1413, 1.0464], [122.1541, 1.0499], [122.1633, 1.0333], [122.1725, 1.0473], [122.1821, 1.0441], [122.1864, 1.057], [122.1955, 1.0385], [122.1255, 1.0182], [122.0927, 0.9998], [122.0759, 1.0062], [122.0423, 0.9895], [122.0231, 0.9581], [121.9933, 0.9417], [121.9833, 0.9265], [121.9852, 0.9105], [121.9758, 0.9042], [121.9547, 0.9077], [121.9382, 0.9278], [121.9222, 0.9274], [121.8903, 0.9748], [121.8515, 0.9927], [121.8479, 0.9785], [121.8119, 0.9502], [121.7354, 0.9297], [121.6913, 0.9026], [121.6734, 0.9035], [121.6546, 0.8912], [121.6458, 0.8952], [121.6031, 0.8729], [121.5369, 0.8759], [121.5324, 0.8527], [121.4808, 0.8376], [121.4668, 0.8475], [121.4013, 0.8434], [121.386, 0.8543], [121.359, 0.8534], [121.347, 0.8483], [121.3505, 0.8213], [121.3645, 0.8068], [121.3533, 0.7953], [121.3324, 0.7946], [121.3175, 0.7845], [121.2892, 0.7982], [121.2375, 0.8012], [121.2159, 0.792], [121.2136, 0.7734], [121.192, 0.7666], [121.1864, 0.7572], [121.1874, 0.7221], [121.173, 0.6854], [121.1612, 0.6787], [121.1967, 0.6419], [121.2307, 0.6432], [121.2279, 0.6261], [121.2394, 0.6022], [121.2949, 0.5801], [121.3038, 0.5679], [121.3164, 0.5784], [121.3457, 0.5658], [121.3473, 0.5352], [121.3313, 0.5227], [121.3517, 0.492], [121.337, 0.4737], [121.2918, 0.4948], [121.2505, 0.4887], [121.2329, 0.4584], [121.1847, 0.461], [121.1792, 0.4465], [121.1608, 0.4364], [121.1619, 0.4155], [121.1221, 0.4115], [121.1113, 0.4011], [121.097, 0.4075], [121.0747, 0.4], [121.0275, 0.4403], [120.9774, 0.418], [120.9487, 0.4144], [120.9323, 0.4003], [120.8973, 0.3959], [120.8544, 0.4425], [120.8378, 0.4464], [120.8298, 0.4404], [120.8088, 0.4532], [120.8107, 0.475], [120.7948, 0.4706], [120.7899, 0.4605], [120.7679, 0.4569], [120.7259, 0.4769], [120.6884, 0.5133], [120.6692, 0.5096], [120.6491, 0.5209], [120.6328, 0.5159], [120.608, 0.5215], [120.5742, 0.5087], [120.5301, 0.5172], [120.4984, 0.5126], [120.4748, 0.497], [120.4619, 0.4977], [120.4368, 0.4714], [120.412, 0.4824], [120.3879, 0.4653], [120.3541, 0.4551], [120.3242, 0.4279], [120.3104, 0.4243], [120.2766, 0.3674], [120.2458, 0.3534], [120.2399, 0.3445], [120.2451, 0.3376], [120.202, 0.2643], [120.158, 0.2273], [120.1244, 0.1661], [120.1339, 0.1535], [120.1349, 0.1318], [120.106, 0.0951], [120.1117, 0.0563], [120.0992, 0.0291], [120.1031, 0.0011], [120.0949, -0.0317], [120.0665, -0.0601], [120.0479, -0.0561], [120.0351, -0.0655], [120.0401, -0.1412], [120.0091, -0.1766], [120.0071, -0.1912], [120.0086, -0.2857], [120.0304, -0.3041], [120.0408, -0.3906], [120.0531, -0.3989], [120.0576, -0.4177], [120.0653, -0.4168], [120.0723, -0.4414], [120.0706, -0.4601], [120.0494, -0.4929], [120.0519, -0.517], [120.0449, -0.517], [120.0524, -0.5173], [120.0474, -0.5313], [120.0602, -0.6324], [120.0846, -0.6888], [120.103, -0.7073], [120.1093, -0.7377], [120.1311, -0.7588], [120.1329, -0.7745], [120.1412, -0.7725], [120.1742, -0.7974], [120.1984, -0.8487], [120.2237, -0.8487], [120.2442, -0.8875], [120.2784, -0.9126], [120.2877, -0.9395], [120.3097, -0.9648], [120.3335, -0.9502], [120.3472, -0.956], [120.3494, -0.9451], [120.3699, -0.9368], [120.3718, -0.9277], [120.4067, -0.923], [120.4297, -0.9396], [120.4347, -0.9646], [120.4609, -0.9936], [120.4852, -0.9895], [120.5088, -0.9981], [120.5316, -1.0337], [120.5294, -1.0469], [120.5551, -1.0758], [120.56, -1.0923], [120.586, -1.1119], [120.5816, -1.1338], [120.5931, -1.149], [120.5931, -1.1683], [120.5838, -1.1946], [120.5714, -1.1991], [120.565, -1.2318], [120.5712, -1.2562], [120.5972, -1.27], [120.6382, -1.3082], [120.647, -1.3307], [120.6432, -1.3635], [120.6654, -1.3835], [120.6754, -1.415], [120.6934, -1.4194], [120.721, -1.388], [120.7383, -1.3811], [120.7481, -1.3893], [120.7627, -1.365], [120.7847, -1.3721], [120.7894, -1.358], [120.8022, -1.3505], [120.8403, -1.3581], [120.8372, -1.3948], [120.8589, -1.4121], [120.95, -1.4149], [120.9819, -1.3991], [121.0173, -1.4197], [121.0397, -1.4128], [121.0391, -1.4339], [121.1009, -1.4376], [121.125, -1.4156], [121.1364, -1.3832], [121.1635, -1.3672], [121.1614, -1.3486], [121.182, -1.3255], [121.1945, -1.2946], [121.1943, -1.2719], [121.2085, -1.2615], [121.2042, -1.2366], [121.2232, -1.2168], [121.2227, -1.2025], [121.2325, -1.1928], [121.2459, -1.193], [121.2645, -1.1643], [121.2796, -1.1588], [121.295, -1.1326], [121.2952, -1.116], [121.3365, -1.0646], [121.3794, -1.0346], [121.3923, -1.035], [121.3963, -1.005], [121.45, -0.9723], [121.4801, -0.8998], [121.539, -0.873], [121.5888, -0.866], [121.6012, -0.8509], [121.5962, -0.8351], [121.5896, -0.8362], [121.5969, -0.8252], [121.6075, -0.8268], [121.6337, -0.807], [121.6541, -0.8021], [121.6642, -0.8178], [121.669, -0.8577], [121.656, -0.9118], [121.6681, -0.9223], [121.6963, -0.9261], [121.7111, -0.9407], [121.7099, -0.9495], [121.7298, -0.952], [121.7609, -0.9711], [121.8218, -0.9565], [121.8337, -0.9682], [121.8344, -0.9617], [121.8518, -0.9615], [121.8489, -0.9686], [121.8945, -0.9746], [121.9102, -0.989], [121.9424, -0.9887], [121.977, -0.966], [121.9886, -0.9425], [122.0052, -0.933], [122.0764, -0.9438], [122.0929, -0.9547], [122.1073, -0.9491], [122.1447, -0.9065], [122.1466, -0.8596], [122.1657, -0.838], [122.1549, -0.8299], [122.1585, -0.8141], [122.1867, -0.8119], [122.1997, -0.7876], [122.2834, -0.7862], [122.3027, -0.7939], [122.3306, -0.7771], [122.344, -0.7837], [122.3603, -0.776], [122.3832, -0.7845], [122.4141, -0.7833], [122.4589, -0.7587], [122.4901, -0.7695], [122.5097, -0.7669], [122.5248, -0.786], [122.5403, -0.78], [122.5805, -0.7837], [122.615, -0.7615], [122.6373, -0.766], [122.6264, -0.7689], [122.6856, -0.8103], [122.728, -0.8127], [122.7907, -0.776], [122.8217, -0.7809], [122.8509, -0.7666], [122.8706, -0.7756], [122.9292, -0.7623], [122.9364, -0.7518], [122.9612, -0.7542], [122.9635, -0.7453], [122.9503, -0.7356], [122.9424, -0.7415], [122.9055, -0.734], [122.8937, -0.7386], [122.8871, -0.722], [122.8694, -0.7111], [122.7816, -0.7049], [122.7476, -0.6789], [122.7319, -0.6761], [122.7251, -0.6625], [122.7814, -0.6695], [122.8074, -0.6341], [122.8229, -0.6298], [122.8185, -0.6386], [122.8272, -0.6342], [122.842, -0.6415], [122.8633, -0.6217], [122.8816, -0.6385], [122.894, -0.6341], [122.8945, -0.6229], [122.9203, -0.6264], [122.9281, -0.6183], [122.9541, -0.6179], [122.94, -0.6272], [122.9573, -0.6441], [122.9681, -0.6189], [122.9864, -0.6164], [122.9894, -0.6233], [123.0124, -0.6011], [123.0258, -0.5958], [123.0312, -0.6052], [123.0337, -0.5963], [123.0516, -0.5906], [123.0501, -0.5686], [123.057, -0.5643], [123.0897, -0.5769], [123.1151, -0.57], [123.1258, -0.5729], [123.1253, -0.5808], [123.1259, -0.5728], [123.1636, -0.5837], [123.198, -0.5691], [123.2346, -0.5823], [123.2615, -0.5795], [123.2627, -0.5884], [123.2628, -0.5803], [123.3086, -0.6103], [123.4075, -0.6505], [123.4112, -0.6552], [123.3815, -0.6628], [123.3871, -0.6743], [123.3924, -0.6691], [123.3872, -0.6811], [123.4015, -0.6934], [123.3961, -0.6966], [123.4017, -0.6935], [123.4228, -0.7189], [123.4353, -0.7077], [123.4439, -0.7105], [123.4266, -0.7414], [123.4274, -0.7468], [123.4447, -0.7451], [123.4576, -0.7691], [123.4465, -0.7707], [123.4341, -0.7996], [123.4317, -0.8185], [123.444, -0.8282], [123.4439, -0.838], [123.4106, -0.8554], [123.397, -0.8783], [123.3836, -0.9313], [123.3974, -0.953], [123.3814, -0.9668], [123.375, -1.0066], [123.3535, -1.033], [123.311, -1.0509], [123.2651, -1.0424], [123.2385, -1.0002], [123.208, -0.9905], [123.1691, -0.9526], [123.1431, -0.9532], [123.1481, -0.9371], [123.1339, -0.8994], [123.1521, -0.901], [123.1461, -0.889], [123.1511, -0.8856], [123.1277, -0.8545], [123.1002, -0.8355], [123.06, -0.8715], [123.0742, -0.8824], [123.0614, -0.8851], [123.0592, -0.8967], [123.0372, -0.8943], [123.0427, -0.8718], [123.0276, -0.8815], [123.0395, -0.9089], [123.0248, -0.9091], [123.0056, -0.8936], [122.8898, -0.9296], [122.8588, -0.9229], [122.8094, -0.9369], [122.7924, -0.9489], [122.7908, -0.9555], [122.7992, -0.9534], [122.7863, -0.977], [122.7984, -1.0035], [122.7668, -1.0491], [122.7284, -1.0864], [122.7139, -1.1148], [122.7151, -1.1343], [122.6692, -1.1377], [122.6618, -1.1645], [122.6432, -1.1706], [122.6351, -1.1651], [122.6331, -1.2354], [122.5599, -1.2681], [122.5699, -1.2858], [122.56, -1.312], [122.499, -1.3552], [122.4723, -1.4043], [122.4183, -1.4406], [122.3922, -1.493], [122.3591, -1.5172], [122.304, -1.5329], [122.2787, -1.5567], [122.2439, -1.5741], [122.2127, -1.606], [122.0916, -1.6167], [122.0331, -1.611], [121.9592, -1.6792], [121.9442, -1.6742], [121.9296, -1.6902], [121.9255, -1.6806], [121.9056, -1.6895], [121.9043, -1.7013], [121.8912, -1.6946], [121.8959, -1.6885], [121.8887, -1.6755], [121.8831, -1.6888], [121.863, -1.6708], [121.8606, -1.679], [121.8707, -1.6911], [121.8634, -1.6908], [121.8613, -1.7023], [121.8802, -1.6964], [121.8863, -1.7075], [121.8586, -1.7093], [121.8513, -1.6932], [121.8249, -1.7261], [121.8076, -1.7308], [121.8023, -1.7437], [121.8071, -1.763], [121.779, -1.7983], [121.7648, -1.8509], [121.7438, -1.8875], [121.7188, -1.9055], [121.7142, -1.9231], [121.6902, -1.9277], [121.6767, -1.9466], [121.639, -1.9594], [121.6014, -1.9525], [121.5636, -1.9572], [121.5396, -1.918], [121.4985, -1.8972], [121.4989, -1.889], [121.4861, -1.883], [121.4885, -1.8732], [121.4577, -1.8768], [121.4698, -1.857], [121.4485, -1.8673], [121.4552, -1.8522], [121.4501, -1.8494], [121.468, -1.8364], [121.4549, -1.8263], [121.4607, -1.8161], [121.446, -1.804], [121.4218, -1.8125], [121.419, -1.822], [121.4002, -1.805], [121.3722, -1.8082], [121.367, -1.7917], [121.3499, -1.7865], [121.341, -1.7724], [121.3252, -1.773], [121.3227, -1.7639], [121.3108, -1.7701], [121.3196, -1.7753], [121.3154, -1.7911], [121.299, -1.7975], [121.2889, -1.8388], [121.2942, -1.857], [121.3252, -1.8547], [121.3272, -1.8639], [121.3415, -1.8539], [121.3443, -1.8417], [121.3515, -1.8582], [121.3449, -1.8651], [121.362, -1.8744], [121.3499, -1.8706], [121.3307, -1.8801], [121.3315, -1.8901], [121.3498, -1.8973], [121.3318, -1.8989], [121.3279, -1.919], [121.3122, -1.9294], [121.3174, -1.9369], [121.3288, -1.9389], [121.3287, -1.9332], [121.3391, -1.9509], [121.3511, -1.9502], [121.3391, -1.9774], [121.3427, -2.0054], [121.3488, -2.0083], [121.3622, -1.9827], [121.381, -1.9768], [121.3786, -1.9176], [121.3925, -1.9038], [121.4003, -1.9155], [121.4093, -1.9062], [121.4189, -1.9313], [121.4135, -1.9407], [121.4267, -1.9464], [121.4208, -1.9568], [121.4371, -1.9774], [121.4436, -1.9747], [121.4409, -1.9839], [121.4525, -1.9998], [121.465, -1.9996], [121.4734, -2.0151], [121.487, -2.0164], [121.4868, -2.0259], [121.4918, -2.0202], [121.4988, -2.0264], [121.4915, -2.0308], [121.4931, -2.0415], [121.5111, -2.0579], [121.5297, -2.0455], [121.5314, -2.0697], [121.5347, -2.0486], [121.5327, -2.0728], [121.5221, -2.0749], [121.5338, -2.075], [121.5448, -2.1096], [121.5401, -2.1337], [121.539247241511, -2.13371201068295], [121.5535, -2.1679], [121.614, -2.1865], [121.6599, -2.1827], [121.666, -2.1908], [121.6624, -2.1851], [121.6803, -2.1801], [121.6794, -2.1734], [121.6898, -2.1895], [121.7238, -2.1981], [121.7569, -2.2496], [121.7718, -2.2554], [121.7952, -2.2882], [121.8248, -2.2939], [121.8404, -2.3456], [121.8684, -2.3779], [121.8749, -2.4029], [121.9078, -2.4329], [121.9682, -2.5281], [121.9899, -2.6011], [122.0052, -2.6212], [122.0017, -2.6278], [122.0354, -2.657], [122.0327, -2.6738], [122.0105, -2.6741], [122.0101, -2.7184], [122.0589, -2.7491], [122.0856, -2.7887], [122.1395, -2.7887], [122.1642, -2.8196], [122.1849, -2.8237], [122.1932, -2.8448], [122.1852, -2.8696], [122.2045, -2.8827], [122.2081, -2.9007], [122.2503, -2.8776], [122.2531, -2.8913], [122.2783, -2.8864], [122.3146, -2.9103], [122.3207, -2.921], [122.3065, -2.9572], [122.2785, -2.9994], [122.2544, -3.0108], [122.2509, -3.0253], [122.2743, -3.049], [122.3051, -3.0607], [122.3356, -3.0858], [122.3714, -3.1416], [122.3802, -3.1448], [122.4266, -3.1269], [122.4284, -3.1368], [122.4437, -3.142], [122.4453, -3.1621], [122.4597, -3.1628], [122.4538, -3.1508], [122.4644, -3.1498], [122.4648, -3.1597], [122.4853, -3.1771], [122.4692, -3.1888], [122.4286, -3.1925], [122.4228, -3.2053], [122.4337, -3.2411], [122.4226, -3.2449], [122.4334, -3.2576], [122.4273, -3.2797], [122.4227, -3.2617], [122.4082, -3.2563], [122.4012, -3.2396], [122.3857, -3.2572], [122.3716, -3.2532], [122.3727, -3.2456], [122.3592, -3.2552], [122.3683, -3.2255], [122.3476, -3.2369], [122.342, -3.2309], [122.3252, -3.2334], [122.3166, -3.2668], [122.3089, -3.2714], [122.2957, -3.2558], [122.302, -3.237], [122.2954, -3.2206], [122.311, -3.1941], [122.3144, -3.165], [122.2849, -3.1414], [122.2664, -3.1452], [122.2534, -3.135], [122.2309, -3.1406], [122.2222, -3.1349], [122.1719, -3.0842], [122.1796, -3.0328], [122.1, -3.009], [122.0812, -2.9804], [122.0849, -2.967], [122.0691, -2.9518], [122.0055, -2.9578], [121.9206, -2.99], [121.8575, -2.9639], [121.8334, -2.9722], [121.7912, -2.9444], [121.7709, -2.9428], [121.7527, -2.9236], [121.7304, -2.9159], [121.7142, -2.9203], [121.6855, -2.9008], [121.6912, -2.8823], [121.6726, -2.869], [121.6698, -2.8426], [121.6865, -2.821], [121.6987, -2.8144], [121.7123, -2.8182], [121.724, -2.808], [121.7222, -2.7683], [121.7415, -2.7563], [121.7544, -2.7346], [121.7577, -2.7051], [121.7783, -2.6861], [121.7904, -2.6604], [121.7784, -2.6449], [121.7799, -2.6307], [121.7384, -2.5927], [121.6983, -2.5329], [121.6894, -2.5325], [121.6836, -2.5427], [121.6532, -2.5395], [121.6263, -2.49], [121.6115, -2.4848], [121.5598, -2.4911], [121.5455, -2.4719], [121.5013, -2.4526], [121.4903, -2.4302], [121.4421, -2.405], [121.408, -2.4103], [121.231, -2.3613], [121.181, -2.3749], [121.097, -2.2747], [121.0532, -2.267], [121.0344, -2.2755], [120.9909, -2.2441], [120.8803, -2.2198], [120.805, -2.2253], [120.791, -2.2385], [120.7566, -2.239], [120.7174, -2.2233], [120.6223, -2.1621], [120.5864, -2.1295], [120.5028, -2.0296], [120.4839, -2.0021], [120.4705, -1.9629], [120.4085, -1.8973], [120.3888, -1.8975], [120.3793, -1.9534], [120.3398, -2.0613], [120.2706, -2.0283], [120.1791, -2.0344], [120.1194, -2.0124], [120.1134, -1.992], [120.0877, -1.9802], [120.0509, -1.9848], [120.01, -1.9644], [119.9691, -1.9765], [119.9638, -2.0003], [119.9441, -2.0162], [119.945, -2.0283], [119.9304, -2.0375], [119.9207, -2.0337], [119.9091, -2.0534], [119.8839, -2.0462], [119.8682, -2.0275], [119.8735, -2.0217], [119.8661, -2.0114], [119.8638, -1.9607], [119.8708, -1.938], [119.8614, -1.9322], [119.8605, -1.9158], [119.8692, -1.8911], [119.8569, -1.8767], [119.8754, -1.8626], [119.8579, -1.8221], [119.8714, -1.7786], [119.8664, -1.7709], [119.8435, -1.7755], [119.8269, -1.7674], [119.809, -1.7413], [119.7975, -1.7392], [119.792, -1.7211], [119.7765, -1.7091], [119.779, -1.6902], [119.7639, -1.678], [119.7505, -1.6434], [119.7278, -1.6435], [119.7334, -1.605], [119.7153, -1.5922], [119.7013, -1.5661], [119.6711, -1.544], [119.6693, -1.5142], [119.7006, -1.4578], [119.6823, -1.4406], [119.6711, -1.4428], [119.6659, -1.4342], [119.6725, -1.4317], [119.6425, -1.4049], [119.6313, -1.4007], [119.6298, -1.4066], [119.622, -1.397], [119.6114, -1.4063], [119.5913, -1.3965], [119.5894, -1.4092], [119.582, -1.4096], [119.5833, -1.4254], [119.5687, -1.4213], [119.5689, -1.428], [119.5466, -1.4374], [119.5487, -1.4266], [119.5421, -1.4218], [119.5406, -1.4318], [119.5331, -1.4283], [119.5083, -1.4508], [119.5107, -1.4382], [119.5201, -1.4335], [119.5187, -1.412], [119.5094, -1.4169], [119.5022, -1.3929], [119.4793, -1.399], [119.4485, -1.3609], [119.4479, -1.3409], [119.4643, -1.3186], [119.4919, -1.3218], [119.5225, -1.3107], [119.5236, -1.2944], [119.517, -1.3024], [119.4986, -1.299], [119.4818, -1.3094], [119.4733, -1.2978], [119.524, -1.2515], [119.5422, -1.223], [119.5421, -1.2005], [119.5648, -1.2013], [119.5721, -1.149], [119.6001, -1.1591], [119.6073, -1.1541], [119.6091, -1.1204], [119.593, -1.1243], [119.5805, -1.0565], [119.5725, -1.0499], [119.5753, -1.0183], [119.5569, -1.0095], [119.554, -0.9314], [119.5632, -0.9143], [119.5603, -0.8994], [119.5728, -0.8801], [119.5618, -0.8497], [119.6137, -0.8346], [119.6229, -0.8008], [119.6533, -0.7838], [119.6573, -0.7898], [119.649, -0.8054], [119.663, -0.8016], [119.6564, -0.7816], [119.6694, -0.7646], [119.682, -0.7687], [119.6863, -0.7477], [119.6753, -0.7216], [119.6609, -0.717], [119.6701, -0.7026], [119.6899, -0.7007], [119.6901, -0.6922], [119.7099, -0.6844], [119.7274, -0.6457], [119.7399, -0.6452], [119.7406, -0.6636], [119.7609, -0.682], [119.7584, -0.7021], [119.769, -0.7034], [119.7919, -0.7643], [119.788, -0.7698], [119.8128, -0.8077], [119.816, -0.8382], [119.8388, -0.8791], [119.8701, -0.8838], [119.8811, -0.86], [119.8842, -0.8213], [119.8591, -0.7774], [119.8622, -0.7556], [119.8547, -0.7353], [119.8627, -0.7136], [119.8225, -0.6884], [119.8068, -0.6486], [119.8116, -0.6287], [119.7895, -0.5986], [119.7842, -0.5516], [119.7586, -0.49], [119.7638, -0.4726], [119.7544, -0.4375], [119.7645, -0.4005], [119.7516, -0.3665], [119.7639, -0.3488], [119.7787, -0.2772], [119.7952, -0.2554], [119.8051, -0.213], [119.8181, -0.196], [119.7987, -0.1554], [119.8103, -0.1367], [119.7938, -0.1218], [119.7377, -0.143], [119.7031, -0.1367], [119.6537, -0.0945], [119.651, -0.0743], [119.6153, -0.0319], [119.6062, -0.0046], [119.6663, -0.0173], [119.6733, 0.001], [119.662, 0.0069], [119.6596, 0.0177], [119.6657, 0.02], [119.7327, -0.0211], [119.7428, -0.037], [119.7387, -0.0613], [119.7689, -0.0768], [119.7776, -0.114], [119.798, -0.1065], [119.8224, -0.1165], [119.8418, -0.0982], [119.8828, -0.0206], [119.8857, -0.0012], [119.8749, 0.0431], [119.8789, 0.0771], [119.8681, 0.1057], [119.8586, 0.1085], [119.8633, 0.1153], [119.7956, 0.1717], [119.7753, 0.1941], [119.7705, 0.2127], [119.7812, 0.2261], [119.808, 0.2364], [119.825, 0.2327], [119.8342, 0.216], [119.8677, 0.2182], [119.8875, 0.211], [119.9017, 0.2207], [119.906, 0.2324], [119.8907, 0.2961], [119.873, 0.2935], [119.8452, 0.3353], [119.8508, 0.3563], [119.8889, 0.3942], [119.8879, 0.4192], [119.8763, 0.4363], [119.8821, 0.4584], [119.9067, 0.481], [119.9114, 0.4748], [119.9514, 0.4742], [119.9989, 0.4833], [120.0466, 0.5133], [120.0333, 0.6091], [120.0142, 0.6518], [120.0163, 0.6708], [120.039, 0.6947], [120.0384, 0.7174], [120.0542, 0.7122], [120.0729, 0.7405], [120.0908, 0.7388], [120.1008, 0.7505], [120.1037, 0.7411], [120.1226, 0.741], [120.1725, 0.7532], [120.2381, 0.8007], [120.246, 0.834], [120.2346, 0.8863], [120.2403, 0.9214], [120.2523, 0.9376], [120.2483, 0.9602], [120.2583, 0.9581], [120.2647, 0.9689], [120.2756, 0.969], [120.2779, 0.9797], [120.2844, 0.9765], [120.2823, 0.9863], [120.3541, 0.9842], [120.3405, 0.943], [120.3404, 0.8922], [120.3299, 0.878], [120.3287, 0.8513], [120.3605, 0.837], [120.3569, 0.8295], [120.3634, 0.8283], [120.3674, 0.8646], [120.3738, 0.8668], [120.3749, 0.829], [120.3874, 0.8008], [120.4003, 0.7911], [120.4739, 0.778], [120.4955, 0.7931], [120.5133, 0.793]], [[120.554621503017, 0.76975523861766], [120.555, 0.7706], [120.5493, 0.7735], [120.554621503017, 0.76975523861766]], [[121.539247241511, -2.13371201068295], [121.5382, -2.1312], [121.5259, -2.1339], [121.539247241511, -2.13371201068295]]], [[[123.1795, -3.5984], [123.1778, -3.6211], [123.121, -3.613], [123.1178, -3.6407], [123.0738, -3.6247], [123.0439, -3.5928], [123.0762, -3.5758], [123.1564, -3.5562], [123.1795, -3.5984]]], [[[123.0673, -3.5281], [123.0586, -3.5264], [123.0572, -3.5134], [123.07, -3.5156], [123.1088, -3.4944], [123.0673, -3.5281]]], [[[122.3895, -3.3514], [122.39, -3.3431], [122.3964, -3.344], [122.3965, -3.3517], [122.3895, -3.3514]]], [[[123.6681, -2.1629], [123.6812, -2.1632], [123.6779, -2.177], [123.6701, -2.1783], [123.6637, -2.1529], [123.6681, -2.1629]]], [[[123.6366, -2.1256], [123.6418, -2.1368], [123.6315, -2.1279], [123.6366, -2.1256]]], [[[123.923, -2.0998], [123.9327, -2.1018], [123.9315, -2.1099], [123.923, -2.0998]]], [[[123.5514, -2.0942], [123.5617, -2.0964], [123.5612, -2.1058], [123.5434, -2.1013], [123.5514, -2.0942]]], [[[123.8939, -2.093], [123.9003, -2.0983], [123.8879, -2.0954], [123.8939, -2.093]]], [[[123.4885, -1.9819], [123.4788, -2.0016], [123.4816, -1.9826], [123.4885, -1.9819]]], [[[123.8801, -2.0295], [123.882, -2.0496], [123.8971, -2.0745], [123.8896, -2.0877], [123.8612, -2.0647], [123.8552, -2.0685], [123.8606, -2.0745], [123.8448, -2.0645], [123.8621, -2.008], [123.8801, -2.0295]]], [[[123.901, -2.0038], [123.906, -2.007], [123.8948, -2.0237], [123.8893, -2.0049], [123.901, -2.0038]]], [[[123.7674, -2.0075], [123.7848, -2.0283], [123.7623, -2.0604], [123.7568, -2.0269], [123.7674, -2.0075]]], [[[123.7513, -2.0183], [123.7564, -2.0162], [123.7543, -2.0231], [123.7513, -2.0183]]], [[[124.0292, -1.8954], [124.0182, -1.8905], [123.9884, -1.824], [123.9974, -1.8108], [124.0092, -1.8172], [124.0005, -1.8329], [124.0107, -1.8277], [124.0238, -1.8439], [124.0338, -1.8878], [124.0292, -1.8954]]], [[[124.1737, -1.7444], [124.1815, -1.7679], [124.1639, -1.7885], [124.15, -1.7706], [124.1602, -1.7817], [124.1686, -1.7515], [124.1515, -1.757], [124.1533, -1.7683], [124.1404, -1.7459], [124.1511, -1.7355], [124.1737, -1.7444]]], [[[123.5439, -1.7242], [123.5366, -1.7255], [123.5179, -1.7007], [123.5134, -1.725], [123.4888, -1.7137], [123.4726, -1.6536], [123.4753, -1.6415], [123.4886, -1.6368], [123.4797, -1.6149], [123.5006, -1.5972], [123.4925, -1.5797], [123.4854, -1.5755], [123.4802, -1.5843], [123.479, -1.5474], [123.5001, -1.5269], [123.5054, -1.4974], [123.5216, -1.5112], [123.5283, -1.5084], [123.5228, -1.4984], [123.5302, -1.4992], [123.5307, -1.4915], [123.5217, -1.4867], [123.5317, -1.4772], [123.5471, -1.4912], [123.547, -1.51], [123.5638, -1.5481], [123.5544, -1.5662], [123.5597, -1.5988], [123.5772, -1.6105], [123.5928, -1.6027], [123.5916, -1.594], [123.615, -1.608], [123.6231, -1.6258], [123.6205, -1.6398], [123.6038, -1.6314], [123.6201, -1.6519], [123.609, -1.6709], [123.6127, -1.6986], [123.5964, -1.7151], [123.5819, -1.7079], [123.5758, -1.7267], [123.5644, -1.7272], [123.5548, -1.7175], [123.5439, -1.7242]]], [[[123.4818, -1.9506], [123.4693, -1.953], [123.4654, -1.9463], [123.4865, -1.9367], [123.4889, -1.9463], [123.4799, -1.9456], [123.4818, -1.9506]]], [[[123.8382, -2.0051], [123.8246, -2.027], [123.7849, -1.9831], [123.7821, -1.9295], [123.7777, -1.949], [123.7708, -1.9431], [123.776341679627, -1.92336918462563], [123.7768, -1.9222], [123.776732374243, -1.92197814005918], [123.7799, -1.9107], [123.776, -1.8922], [123.7838, -1.8793], [123.8039, -1.8928], [123.8094, -1.913], [123.8192, -1.9135], [123.8392, -1.9467], [123.846, -1.9411], [123.8444, -1.9544], [123.8635, -1.9791], [123.8555, -2.0129], [123.841, -1.9912], [123.8382, -2.0051]]], [[[123.776341679627, -1.92336918462563], [123.7719, -1.9347], [123.7711, -1.9035], [123.776732374243, -1.92197814005918], [123.776341679627, -1.92336918462563]]], [[[123.7386, -1.946], [123.7392, -1.9547], [123.7342, -1.9499], [123.7251, -1.9605], [123.699, -1.9582], [123.7081, -1.9209], [123.7284, -1.8977], [123.7386, -1.9157], [123.7386, -1.946]]], [[[123.5372, -1.9126], [123.5423, -1.9174], [123.5397, -1.9238], [123.5335, -1.9202], [123.5351, -1.9361], [123.5285, -1.9238], [123.5372, -1.9126]]], [[[123.6527, -1.9031], [123.6638, -1.9582], [123.6586, -1.9663], [123.6447, -1.9558], [123.6475, -1.8957], [123.6527, -1.9031]]], [[[123.6703, -1.8848], [123.6787, -1.8841], [123.6836, -1.8952], [123.6747, -1.8868], [123.6769, -1.8958], [123.6887, -1.9142], [123.6811, -1.9299], [123.6743, -1.9181], [123.679, -1.9094], [123.6743, -1.9157], [123.6661, -1.9079], [123.6626, -1.8906], [123.6703, -1.8848]]], [[[123.6982, -1.8927], [123.7007, -1.8754], [123.6937, -1.8765], [123.693, -1.8651], [123.6909, -1.8708], [123.6862, -1.8656], [123.6826, -1.8788], [123.6857, -1.8627], [123.696, -1.8619], [123.7017, -1.8725], [123.7043, -1.8927], [123.6939, -1.9082], [123.6927, -1.8931], [123.6982, -1.8927]]], [[[123.7651, -1.8662], [123.7708, -1.8852], [123.7587, -1.8854], [123.7554, -1.8763], [123.7651, -1.8662]]], [[[121.7725, -0.738], [121.7694, -0.7547], [121.7575, -0.741], [121.7725, -0.738]]], [[[121.6296, -0.5928], [121.6206, -0.5904], [121.6265, -0.5825], [121.6296, -0.5928]]], [[[122.5894, -0.5039], [122.5624, -0.5203], [122.538, -0.5029], [122.5284, -0.5077], [122.524, -0.4991], [122.5304, -0.4923], [122.5696, -0.493], [122.6028, -0.4806], [122.6172, -0.5007], [122.5894, -0.5039]]], [[[120.878, 1.3608], [120.8882, 1.3739], [120.8892, 1.3642], [120.878, 1.3608]]], [[[121.872965468383, -0.516597498178298], [121.875, -0.5267], [121.8692, -0.5305], [121.861, -0.5239], [121.871305032351, -0.513130777002742], [121.872965468383, -0.516597498178298]]], [[[121.871305032351, -0.513130777002742], [121.8631, -0.496], [121.8339, -0.496], [121.8552, -0.5096], [121.8567, -0.5039], [121.8626, -0.5186], [121.8441, -0.5207], [121.8311, -0.5322], [121.8255, -0.521], [121.806, -0.5156], [121.7832, -0.4942], [121.7813, -0.5033], [121.7725, -0.4984], [121.7473, -0.5122], [121.7412, -0.4954], [121.7135, -0.5277], [121.7002, -0.5631], [121.6776, -0.5633], [121.6703, -0.575], [121.6583, -0.5772], [121.6603, -0.554], [121.6494, -0.5397], [121.6698, -0.5316], [121.6723, -0.5135], [121.6929, -0.4917], [121.693, -0.479], [121.7055, -0.4805], [121.6928, -0.4714], [121.7209, -0.4732], [121.7383, -0.4487], [121.754, -0.449], [121.7603, -0.4627], [121.7689, -0.461], [121.755, -0.4296], [121.767, -0.4179], [121.7704, -0.4248], [121.769, -0.4157], [121.7786, -0.4231], [121.7831, -0.4487], [121.7881, -0.437], [121.7911, -0.4448], [121.8032, -0.4421], [121.8512, -0.4088], [121.8681, -0.4095], [121.8755, -0.4221], [121.892703299323, -0.424361466577668], [121.910103821151, -0.436221040114127], [121.9176, -0.4426], [121.9148, -0.4708], [121.9234, -0.4769], [121.916, -0.4816], [121.9221, -0.4911], [121.9125, -0.4862], [121.9091, -0.4919], [121.9148, -0.4912], [121.91, -0.4985], [121.9178, -0.516], [121.8861, -0.5397], [121.8712, -0.5346], [121.8779, -0.5269], [121.872965468383, -0.516597498178298], [121.8721, -0.5123], [121.871305032351, -0.513130777002742]]], [[[121.922, -0.4398], [121.9284, -0.4445], [121.9235, -0.4493], [121.922, -0.4398]]], [[[121.8069, -0.4187], [121.7979, -0.4311], [121.7931, -0.428], [121.8069, -0.4187]]], [[[122.0782, -0.4161], [122.0773, -0.4251], [122.0692, -0.4226], [122.0782, -0.4161]]], [[[122.2384, -0.3016], [122.2345, -0.31], [122.2319, -0.3025], [122.2384, -0.3016]]], [[[121.6336, -0.1266], [121.6541, -0.1367], [121.6524, -0.1918], [121.6361, -0.209], [121.616, -0.2162], [121.5938, -0.2113], [121.5648, -0.18], [121.5638, -0.1605], [121.6036, -0.1283], [121.6288, -0.1217], [121.6336, -0.1266]]], [[[119.9068, 0.4826], [119.8914, 0.4918], [119.9051, 0.4929], [119.9068, 0.4826]]], [[[122.3697, -0.3189], [122.368, -0.329], [122.3829, -0.3475], [122.3834, -0.3664], [122.3968, -0.3896], [122.3473, -0.3207], [122.3455, -0.2901], [122.3272, -0.2928], [122.3025, -0.2693], [122.3013, -0.2583], [122.2916, -0.2694], [122.2842, -0.2569], [122.278, -0.269], [122.2524, -0.2535], [122.2514, -0.2601], [122.2328, -0.2378], [122.2288, -0.2123], [122.2402, -0.2059], [122.2517, -0.222], [122.2578, -0.2169], [122.2634, -0.2387], [122.2817, -0.2221], [122.2918, -0.2479], [122.3102, -0.2353], [122.3475, -0.258], [122.3565, -0.2566], [122.3611, -0.2717], [122.3796, -0.2738], [122.3772, -0.2879], [122.3843, -0.2938], [122.3727, -0.3019], [122.3791, -0.3137], [122.3697, -0.3189]]], [[[121.8179, -0.4081], [121.8123, -0.4051], [121.8165, -0.3883], [121.8271, -0.3976], [121.8179, -0.4081]]], [[[122.0805, -0.392], [122.0672, -0.391], [122.0702, -0.3667], [122.062, -0.3664], [122.0614, -0.3529], [122.0758, -0.3445], [122.0676, -0.3284], [122.0769, -0.321], [122.0698, -0.3032], [122.0806, -0.3065], [122.092, -0.2709], [122.1107, -0.3099], [122.1079, -0.3222], [122.1145, -0.3208], [122.1053, -0.3258], [122.1158, -0.3268], [122.1109, -0.339], [122.1154, -0.3438], [122.1212, -0.3385], [122.1398, -0.3565], [122.1338, -0.3453], [122.1416, -0.3392], [122.1465, -0.3566], [122.1393, -0.3745], [122.1492, -0.373], [122.154, -0.3972], [122.1411, -0.4057], [122.146, -0.4187], [122.1382, -0.4104], [122.1364, -0.4202], [122.1324, -0.4118], [122.1297, -0.4239], [122.0945, -0.3992], [122.0926, -0.4152], [122.1034, -0.4179], [122.1084, -0.434], [122.0934, -0.4272], [122.0962, -0.4465], [122.0877, -0.44], [122.0899, -0.43], [122.08, -0.4279], [122.0789, -0.4142], [122.0636, -0.4085], [122.0683, -0.3998], [122.0813, -0.3997], [122.0805, -0.392]]], [[[121.8531, -0.3594], [121.8414, -0.3596], [121.8471, -0.3531], [121.8531, -0.3594]]], [[[121.9494, -0.3147], [121.9477, -0.3203], [121.9391, -0.3158], [121.9494, -0.3147]]], [[[121.8774, -0.35], [121.8556, -0.3649], [121.8543, -0.3552], [121.8774, -0.35]]], [[[122.073, -0.2472], [122.0868, -0.241], [122.0953, -0.2478], [122.0833, -0.2658], [122.07, -0.2613], [122.0442, -0.2777], [122.0283, -0.2751], [122.0432, -0.2561], [122.073, -0.2472]]], [[[122.1487, -0.2656], [122.155, -0.2657], [122.1501, -0.2764], [122.1487, -0.2656]]], [[[122.1225, -0.2712], [122.1109, -0.2646], [122.1153, -0.2532], [122.1276, -0.2607], [122.1225, -0.2712]]], [[[122.2458, -0.281], [122.2451, -0.2922], [122.2336, -0.2976], [122.2293, -0.2924], [122.2396, -0.2806], [122.2133, -0.2915], [122.2018, -0.2786], [122.2047, -0.2719], [122.1804, -0.2793], [122.1734, -0.2561], [122.1782, -0.2511], [122.1686, -0.2484], [122.1596, -0.263], [122.1515, -0.2623], [122.1475, -0.2437], [122.1851, -0.2152], [122.2087, -0.2103], [122.211, -0.2189], [122.1881, -0.2504], [122.1929, -0.2565], [122.2023, -0.246], [122.2184, -0.2485], [122.2147, -0.2618], [122.2298, -0.2563], [122.2353, -0.265], [122.2281, -0.273], [122.2481, -0.2741], [122.2458, -0.281]]], [[[119.8586, 0.5326], [119.8784, 0.5208], [119.8511, 0.5056], [119.8586, 0.5326]]], [[[120.2377, 0.9792], [120.2494, 0.9854], [120.231, 0.9683], [120.2377, 0.9792]]], [[[120.7043, 0.9881], [120.6997, 0.9932], [120.7148, 1.0015], [120.7357, 0.9978], [120.7228, 0.9915], [120.7251, 0.9861], [120.7043, 0.9881]]], [[[121.9641, 1.0523], [121.9731, 1.0721], [121.9764, 1.0654], [121.9641, 1.0523]]], [[[120.5993, 1.0573], [120.6048, 1.0678], [120.625, 1.0642], [120.6471, 1.0417], [120.6655, 1.0403], [120.6648, 1.0247], [120.6756, 1.0128], [120.644, 1.0332], [120.6395, 1.0481], [120.6147, 1.0513], [120.608, 1.0643], [120.5993, 1.0573]]], [[[120.4014, 1.0514], [120.3926, 1.0103], [120.3736, 1.0103], [120.3658, 1.0291], [120.3798, 1.0758], [120.4003, 1.0712], [120.4014, 1.0514]]], [[[122.6083, -3.128], [122.6129, -3.1235], [122.6139, -3.131], [122.6083, -3.128]]], [[[122.4998, -3.0874], [122.4818, -3.0797], [122.4881, -3.0585], [122.4994, -3.0657], [122.5082, -3.0599], [122.5157, -3.0679], [122.5193, -3.0876], [122.4998, -3.0874]]], [[[122.4815, -3.0697], [122.4784, -3.0785], [122.4612, -3.0608], [122.4733, -3.0593], [122.4815, -3.0697]]], [[[122.3838, -3.0595], [122.3796, -3.0553], [122.3888, -3.0516], [122.3838, -3.0595]]], [[[122.3393, -3.0063], [122.3543, -3.0068], [122.3606, -3.0151], [122.3457, -3.0165], [122.3533, -3.0232], [122.3389, -3.0211], [122.3158, -3.0002], [122.321, -2.9963], [122.3393, -3.0063]]], [[[123.4667, -2.2084], [123.4671, -2.2189], [123.4115, -2.2416], [123.4034, -2.2403], [123.3969, -2.224], [123.3983, -2.2087], [123.4079, -2.2347], [123.4631, -2.2164], [123.4667, -2.2084]]], [[[123.1471, -2.2235], [123.1448, -2.2098], [123.1563, -2.1964], [123.1605, -2.2068], [123.1471, -2.2235]]], [[[123.4422, -2.1198], [123.4508, -2.1296], [123.4404, -2.1272], [123.4422, -2.1198]]], [[[122.4122, -3.0618], [122.3887, -3.0375], [122.4089, -3.0165], [122.4019, -3.0265], [122.4131, -3.0297], [122.427, -3.0525], [122.4122, -3.0618]]], [[[122.3846, -3.0373], [122.3723, -3.045], [122.3577, -3.0398], [122.3837, -3.0291], [122.3846, -3.0373]]], [[[121.3787, -1.9028], [121.3646, -1.9222], [121.3646, -1.9045], [121.3787, -1.9028]]], [[[123.2595, -1.6263], [123.2406, -1.648], [123.2257, -1.5953], [123.206, -1.6104], [123.2088, -1.62], [123.1926, -1.6087], [123.1799, -1.6328], [123.1704, -1.6284], [123.1549, -1.6409], [123.1546, -1.6136], [123.1331, -1.6074], [123.1149, -1.6122], [123.1114, -1.5912], [123.0986, -1.6005], [123.1074, -1.5666], [123.1282, -1.5681], [123.1447, -1.5463], [123.1702, -1.536], [123.1848, -1.5144], [123.176, -1.4984], [123.1723, -1.4534], [123.1632, -1.4532], [123.1726, -1.4283], [123.1637, -1.4015], [123.168, -1.3864], [123.1579, -1.3768], [123.1651, -1.3755], [123.1564, -1.3685], [123.1556, -1.3364], [123.1585, -1.3088], [123.1659, -1.3033], [123.147, -1.2964], [123.1219, -1.3186], [123.12, -1.2952], [123.0968, -1.3455], [123.0372, -1.4212], [123.0169, -1.4928], [123.0074, -1.5042], [123.0033, -1.5002], [122.9985, -1.5162], [122.9773, -1.5239], [122.9638, -1.5463], [122.9464, -1.5448], [122.9319, -1.5621], [122.9274, -1.5823], [122.9202, -1.5795], [122.9243, -1.5854], [122.9068, -1.5996], [122.879, -1.6006], [122.8491, -1.5782], [122.8542, -1.5588], [122.8371, -1.5275], [122.8437, -1.5294], [122.8389, -1.5107], [122.8379, -1.5244], [122.8186, -1.4996], [122.8262, -1.5002], [122.8205, -1.4823], [122.8135, -1.4892], [122.8048, -1.4823], [122.799, -1.4919], [122.7902, -1.481], [122.7941, -1.4687], [122.7859, -1.4568], [122.7944, -1.4325], [122.7935, -1.3854], [122.8037, -1.3486], [122.8167, -1.3335], [122.8133, -1.318], [122.8242, -1.2885], [122.8709, -1.25], [122.8821, -1.2151], [122.9052, -1.1825], [122.9452, -1.1851], [122.972, -1.2162], [122.9778, -1.2034], [123.0329, -1.1778], [123.0583, -1.1794], [123.1055, -1.1607], [123.1449, -1.2112], [123.1608, -1.1866], [123.1638, -1.1516], [123.1905, -1.1511], [123.2202, -1.207], [123.2487, -1.2293], [123.2392, -1.2358], [123.2292, -1.2322], [123.2351, -1.237], [123.2176, -1.2705], [123.1861, -1.2622], [123.196, -1.2701], [123.1979, -1.2844], [123.1836, -1.3206], [123.2068, -1.3374], [123.2166, -1.3648], [123.2198, -1.3518], [123.2273, -1.3593], [123.2388, -1.3827], [123.2282, -1.3881], [123.2416, -1.3996], [123.2699, -1.382], [123.2839, -1.3582], [123.2874, -1.346], [123.2792, -1.3292], [123.291, -1.3117], [123.2826, -1.3172], [123.2968, -1.305], [123.3141, -1.3039], [123.3308, -1.2669], [123.3753, -1.2217], [123.391, -1.2229], [123.3982, -1.2351], [123.4041, -1.2186], [123.4127, -1.2247], [123.4038, -1.2524], [123.4217, -1.2571], [123.4204, -1.2649], [123.4296, -1.2699], [123.4456, -1.2669], [123.4423, -1.2344], [123.473, -1.2498], [123.487, -1.2696], [123.5221, -1.2644], [123.512, -1.2815], [123.5246, -1.269], [123.5594, -1.2815], [123.5577, -1.3295], [123.5351, -1.3603], [123.5395, -1.3958], [123.5243, -1.4337], [123.4973, -1.4667], [123.4865, -1.4701], [123.4739, -1.4606], [123.4701, -1.4976], [123.4581, -1.5189], [123.4396, -1.505], [123.4396, -1.5174], [123.4165, -1.5187], [123.4124, -1.5307], [123.3888, -1.5023], [123.3711, -1.498], [123.3543, -1.5256], [123.3554, -1.4732], [123.3435, -1.4717], [123.3289, -1.4545], [123.3212, -1.4362], [123.3257, -1.4153], [123.3178, -1.4222], [123.2945, -1.4114], [123.2758, -1.443], [123.2564, -1.4425], [123.2588, -1.4671], [123.2521, -1.4726], [123.2587, -1.4831], [123.2479, -1.489], [123.2507, -1.519], [123.2377, -1.551], [123.2456, -1.5805], [123.2345, -1.5953], [123.2374, -1.6031], [123.2454, -1.5959], [123.254, -1.6019], [123.2595, -1.6263]]], [[[123.2865, -1.7944], [123.2756, -1.798], [123.2697, -1.7852], [123.2895, -1.746], [123.3535, -1.6792], [123.3801, -1.6729], [123.3846, -1.7224], [123.3726, -1.7177], [123.3516, -1.7421], [123.3388, -1.7329], [123.3159, -1.7821], [123.2865, -1.7944]]], [[[121.4915, -1.9401], [121.4819, -1.9399], [121.4803, -1.9307], [121.4915, -1.9401]]], [[[121.4442, -1.9268], [121.4366, -1.9483], [121.4321, -1.9325], [121.439, -1.9176], [121.4442, -1.9268]]], [[[123.0713, -1.9224], [123.0535, -1.9224], [123.0479, -1.9107], [123.0551, -1.8904], [123.0694, -1.8872], [123.0591, -1.883], [123.0587, -1.8304], [123.0959, -1.7605], [123.1047, -1.7742], [123.1301, -1.7798], [123.1297, -1.7992], [123.1446, -1.7991], [123.1496, -1.8206], [123.1452, -1.832], [123.1428, -1.824], [123.1368, -1.833], [123.1469, -1.8401], [123.1344, -1.869], [123.1304, -1.8619], [123.1287, -1.8704], [123.1061, -1.8744], [123.1036, -1.8853], [123.0931, -1.8858], [123.0947, -1.8984], [123.0846, -1.8973], [123.0891, -1.9106], [123.0713, -1.9224]]], [[[123.3, -1.2838], [123.2747, -1.2154], [123.2804, -1.1939], [123.3133, -1.1741], [123.326, -1.2018], [123.3125, -1.2687], [123.3, -1.2838]]]]}}], "type": "FeatureCollection"}