{"crs": {}, "features": [{"properties": null, "type": "Feature", "geometry": {"type": "MultiPolygon", "coordinates": [[[[122.7368, -6.2132], [122.6977, -6.2134], [122.6783, -6.1986], [122.6725, -6.1815], [122.6965, -6.1849], [122.7368, -6.2132]]], [[[124.6108, -6.1324], [124.6081, -6.1164], [124.6188, -6.111], [124.6219, -6.1171], [124.6108, -6.1324]]], [[[124.061, -6.041], [124.0511, -6.0252], [124.0608, -6.0064], [124.0581, -5.98], [124.0184, -5.9791], [123.9906, -5.9683], [123.9729, -5.9361], [123.9802, -5.8963], [123.9927, -5.876], [124.0479, -5.907], [124.0882, -6.0009], [124.089, -6.0264], [124.061, -6.041]]], [[[123.9094, -5.802], [123.9496, -5.8069], [123.9462, -5.8215], [123.9183, -5.8154], [123.905, -5.8053], [123.9094, -5.802]]], [[[123.9109, -5.7752], [123.8985, -5.7765], [123.8977, -5.7612], [123.9081, -5.7642], [123.9109, -5.7752]]], [[[123.8785, -5.7696], [123.868, -5.7722], [123.8703, -5.7508], [123.8785, -5.7696]]], [[[123.9645, -5.7805], [123.9207, -5.7723], [123.8971, -5.743], [123.898, -5.7272], [123.9081, -5.7183], [123.9426, -5.7222], [124.009, -5.7583], [123.986, -5.7868], [123.9645, -5.7805]]], [[[123.6023, -5.3971], [123.5909, -5.4014], [123.5924, -5.3933], [123.6023, -5.3971]]], [[[124.3358, -5.325], [124.3534, -5.3378], [124.3533, -5.352], [124.3348, -5.3405], [124.3294, -5.3262], [124.3358, -5.325]]], [[[123.5179, -5.3603], [123.5413, -5.3779], [123.5272, -5.3805], [123.4818, -5.3609], [123.4637, -5.3277], [123.4961, -5.3357], [123.5179, -5.3603]]], [[[123.6353, -5.3936], [123.6288, -5.3896], [123.6397, -5.3838], [123.6353, -5.3936]]], [[[123.5372, -5.3492], [123.532, -5.3556], [123.529, -5.3485], [123.5372, -5.3492]]], [[[123.6104, -5.3815], [123.6104, -5.3882], [123.5814, -5.3835], [123.5426, -5.3461], [123.5192, -5.2675], [123.5289, -5.2494], [123.5886, -5.2489], [123.6285, -5.2724], [123.6486, -5.2941], [123.6385, -5.3398], [123.6421, -5.369], [123.6197, -5.3848], [123.6104, -5.3815]]], [[[123.5946, -5.4077], [123.6133, -5.4022], [123.6431, -5.4265], [123.6322, -5.4355], [123.6102, -5.4287], [123.5865, -5.4138], [123.5946, -5.4077]]], [[[121.8195, -5.1582], [121.8149, -5.1618], [121.8128, -5.1553], [121.8195, -5.1582]]], [[[121.8403, -5.1281], [121.8358, -5.1518], [121.8238, -5.1523], [121.8344, -5.1208], [121.8403, -5.1281]]], [[[122.3551, -4.942], [122.3402, -4.9434], [122.3414, -4.9327], [122.3544, -4.9326], [122.3551, -4.942]]], [[[122.8047, -4.936], [122.7927, -4.9395], [122.7996, -4.9306], [122.8047, -4.936]]], [[[122.1807, -4.9115], [122.1681, -4.9202], [122.183, -4.9065], [122.1807, -4.9115]]], [[[122.333, -4.932], [122.3214, -4.9282], [122.326, -4.9185], [122.3453, -4.9161], [122.3449, -4.926], [122.333, -4.932]]], [[[122.7215, -5.2033], [122.7382, -5.1888], [122.7261, -5.2111], [122.717, -5.2124], [122.7215, -5.2033]]], [[[122.0383, -5.4677], [122.0147, -5.4763], [122.0093, -5.4676], [121.9969, -5.4669], [121.9924, -5.4746], [121.9606, -5.4774], [121.9532, -5.4848], [121.958, -5.4957], [121.9475, -5.493], [121.9462, -5.4547], [121.9394, -5.4357], [121.9218, -5.42], [121.9212, -5.4014], [121.9032, -5.4056], [121.8752, -5.3876], [121.8251, -5.3169], [121.8222, -5.2933], [121.7939, -5.2766], [121.8124, -5.2271], [121.8079, -5.2068], [121.8317, -5.2023], [121.8381, -5.1914], [121.8238, -5.186], [121.8227, -5.1689], [121.8409, -5.1464], [121.8607, -5.1595], [121.8754, -5.1491], [121.8827, -5.1528], [121.8812, -5.1403], [121.8632, -5.1372], [121.8635, -5.128], [121.8433, -5.1216], [121.8395, -5.1133], [121.8515, -5.0972], [121.852483692308, -5.09879230769236], [121.8498, -5.094], [121.8884, -5.056], [121.9045, -5.0696], [121.8951, -5.0723], [121.8954, -5.0894], [121.9131, -5.0901], [121.9128, -5.0984], [121.9363, -5.1109], [121.937, -5.0743], [121.9457, -5.0639], [121.9669, -5.0622], [121.9842, -5.0905], [121.9755, -5.1228], [121.9852, -5.1291], [121.9915, -5.1591], [122.0151, -5.1672], [122.0094, -5.1505], [122.0212, -5.1564], [122.022, -5.1491], [122.035, -5.1491], [122.0496, -5.1814], [122.0584, -5.1818], [122.0558, -5.2007], [122.0692, -5.2012], [122.0629, -5.215], [122.0725, -5.2339], [122.0486, -5.2444], [122.0327, -5.2414], [122.0507, -5.2653], [122.0519, -5.2989], [122.0509, -5.3159], [122.0356, -5.3323], [122.0412, -5.3409], [122.0331, -5.3449], [122.0419, -5.3568], [122.037, -5.3696], [122.0477, -5.3657], [122.0434, -5.4379], [122.0499, -5.4607], [122.0383, -5.4677]], [[121.852483692308, -5.09879230769236], [121.8568, -5.1065], [121.857218408003, -5.10645641583297], [121.852483692308, -5.09879230769236]], [[121.857218408003, -5.10645641583297], [121.8654, -5.1197], [121.8669, -5.1121], [121.877, -5.1118], [121.8712, -5.105], [121.857218408003, -5.10645641583297]]], [[[122.0529, -5.4913], [122.0632, -5.4917], [122.0288, -5.5188], [121.993, -5.5227], [122.0529, -5.4913]]], [[[122.0907, -5.482], [122.0855, -5.4941], [122.0706, -5.4873], [122.0737, -5.4733], [122.087, -5.4741], [122.0907, -5.482]]], [[[121.8393, -5.3468], [121.8436, -5.3562], [121.835, -5.3495], [121.8393, -5.3468]]], [[[122.6305, -5.4214], [122.6228, -5.4374], [122.6243, -5.422], [122.6305, -5.4214]]], [[[122.0667, -5.3041], [122.0581, -5.3005], [122.0753, -5.2861], [122.0667, -5.3041]]], [[[122.6946, -5.2869], [122.6805, -5.2939], [122.7117, -5.2396], [122.6946, -5.2869]]], [[[123.8693, -5.5332], [123.8683, -5.5549], [123.8538, -5.5543], [123.8517, -5.5451], [123.8693, -5.5332]]], [[[122.5037, -5.5629], [122.4858, -5.5608], [122.471, -5.5321], [122.4836, -5.5136], [122.5243, -5.4997], [122.5037, -5.5629]]], [[[122.5143, -5.5947], [122.5098, -5.6019], [122.5011, -5.5984], [122.5098, -5.5887], [122.5143, -5.5947]]], [[[123.8183, -5.5823], [123.8251, -5.5845], [123.8199, -5.5991], [123.8183, -5.5823]]], [[[123.8383, -5.5544], [123.847, -5.5519], [123.8618, -5.5683], [123.8809, -5.5707], [123.8841, -5.5841], [123.8649, -5.5944], [123.8333, -5.586], [123.8351, -5.5572], [123.8259, -5.5499], [123.8383, -5.5544]]], [[[123.818, -5.5897], [123.82, -5.602], [123.7834, -5.5917], [123.7621, -5.5526], [123.72, -5.5165], [123.6916, -5.472], [123.7313, -5.4794], [123.7373, -5.49], [123.7672, -5.5033], [123.812, -5.5585], [123.827, -5.5594], [123.8266, -5.5716], [123.811, -5.5773], [123.818, -5.5897]]], [[[122.5088, -5.6966], [122.4581, -5.6932], [122.4563, -5.6866], [122.4838, -5.6713], [122.4949, -5.6509], [122.5055, -5.6468], [122.5081, -5.6241], [122.5445, -5.627], [122.5569, -5.653], [122.5544, -5.6711], [122.5356, -5.6931], [122.5088, -5.6966]]], [[[124.0486, -5.6248], [124.0577, -5.6225], [124.0827, -5.6521], [124.0854, -5.6744], [124.0758, -5.6738], [124.0491, -5.6447], [124.0471, -5.6362], [124.0581, -5.639], [124.0486, -5.6248]]], [[[124.0102, -5.6209], [124.0304, -5.6263], [124.0171, -5.6307], [124.0102, -5.6209]]], [[[123.713, -5.5076], [123.7151, -5.5185], [123.699, -5.5248], [123.695, -5.5203], [123.7039, -5.5066], [123.713, -5.5076]]], [[[123.759, -5.4875], [123.759, -5.4974], [123.7402, -5.489], [123.759, -5.4875]]], [[[123.7732, -5.4587], [123.7859, -5.4773], [123.7723, -5.47], [123.7602, -5.4748], [123.7608, -5.46], [123.7732, -5.4587]]], [[[122.3258, -3.5305], [122.3457, -3.5409], [122.346, -3.547], [122.334, -3.5469], [122.3342, -3.5619], [122.3645, -3.576], [122.3262, -3.5832], [122.3051, -3.5757], [122.2888, -3.5798], [122.2821, -3.5909], [122.2754, -3.5668], [122.2937, -3.5333], [122.3258, -3.5305]]], [[[122.717, -3.8899], [122.7077, -3.884], [122.7177, -3.884], [122.717, -3.8899]]], [[[122.3994, -3.4656], [122.3931, -3.4651], [122.3968, -3.4587], [122.3994, -3.4656]]], [[[122.4429, -3.5053], [122.4315, -3.506], [122.4165, -3.4932], [122.4214, -3.4909], [122.4104, -3.48], [122.4055, -3.4499], [122.3978, -3.4428], [122.403, -3.4009], [122.4124, -3.3953], [122.4234, -3.4281], [122.4662, -3.4653], [122.4626, -3.484], [122.4607, -3.4765], [122.4532, -3.4874], [122.4391, -3.4771], [122.4511, -3.4995], [122.4429, -3.5053]]], [[[121.487, -4.1529], [121.4952, -4.1865], [121.4842, -4.1736], [121.4843, -4.1482], [121.487, -4.1529]]], [[[121.4775, -4.112], [121.4862, -4.1232], [121.4778, -4.1221], [121.4775, -4.112]]], [[[121.3693, -4.0799], [121.3782, -4.1029], [121.3545, -4.0905], [121.3682, -4.0718], [121.3693, -4.0799]]], [[[121.3336, -4.0855], [121.3286, -4.0861], [121.3376, -4.0772], [121.3336, -4.0855]]], [[[122.6974, -3.913], [122.692, -3.9251], [122.6925, -3.9163], [122.6783, -3.9111], [122.6974, -3.913]]], [[[121.4264, -4.0854], [121.4158, -4.1111], [121.441, -4.1167], [121.4503, -4.1022], [121.4644, -4.1042], [121.4697, -4.1149], [121.4561, -4.1188], [121.4634, -4.1341], [121.4303, -4.1296], [121.4434, -4.1687], [121.4281, -4.1702], [121.4186, -4.1558], [121.3928, -4.1669], [121.402, -4.1325], [121.3861, -4.1255], [121.3826, -4.1049], [121.4044, -4.1137], [121.4131, -4.1047], [121.4119, -4.0841], [121.4264, -4.0854]]], [[[122.6044, -3.9758], [122.6182, -3.9907], [122.5996, -3.9835], [122.6044, -3.9758]]], [[[122.7104, -3.9112], [122.699, -3.8942], [122.7264, -3.8961], [122.7104, -3.9112]]], [[[121.4914, -4.1943], [121.4874, -4.2008], [121.4966, -4.1963], [121.4935, -4.2021], [121.5013, -4.2029], [121.483, -4.2036], [121.4735, -4.2259], [121.4694, -4.2079], [121.4793, -4.1959], [121.4914, -4.1943]]], [[[123.1423, -4.2488], [123.1192, -4.2609], [123.0703, -4.2482], [123.0092, -4.204], [122.9902, -4.201], [122.9813, -4.1685], [122.9467, -4.1219], [122.9365, -4.0942], [122.9446, -4.0866], [122.9353, -4.0704], [122.9463, -4.0588], [122.9417, -4.0507], [122.97, -4.0542], [122.9746, -4.0351], [122.9942, -4.0203], [123.0119, -3.9779], [123.0301, -3.9826], [123.0867, -4.022], [123.1252, -4.0183], [123.1383, -4.0087], [123.1916, -4.0101], [123.2251, -4.0262], [123.2252, -4.0354], [123.2544, -4.0665], [123.2593, -4.0893], [123.2472, -4.1251], [123.231, -4.1457], [123.2124, -4.1543], [123.1959, -4.1856], [123.1866, -4.1841], [123.1844, -4.1979], [123.1654, -4.2078], [123.1423, -4.2488]]], [[[122.6684, -4.1277], [122.6631, -4.1331], [122.6731, -4.1469], [122.6642, -4.1476], [122.6753, -4.1501], [122.6765, -4.1579], [122.6959, -4.1568], [122.7085, -4.1651], [122.7146, -4.1626], [122.7099, -4.1488], [122.6959, -4.1373], [122.7121, -4.1378], [122.715, -4.1313], [122.7224, -4.1415], [122.7312, -4.1381], [122.7269, -4.1492], [122.7376, -4.1473], [122.7377, -4.1397], [122.7485, -4.1446], [122.7507, -4.1559], [122.7632, -4.1544], [122.7703, -4.1629], [122.773, -4.1519], [122.8031, -4.1541], [122.8155, -4.136], [122.8172, -4.1452], [122.8334, -4.1539], [122.8243, -4.1341], [122.8307, -4.1359], [122.8348, -4.1249], [122.8241, -4.1224], [122.8234, -4.1098], [122.8079, -4.1146], [122.8081, -4.1003], [122.8015, -4.1093], [122.8016, -4.096], [122.7831, -4.097], [122.7611, -4.0652], [122.7663, -4.056], [122.8107, -4.0619], [122.8308, -4.055], [122.8499, -4.0697], [122.8847, -4.1257], [122.8999, -4.195], [122.8942, -4.2206], [122.9065, -4.2295], [122.9063, -4.2436], [122.8935, -4.2548], [122.8811, -4.2942], [122.8895, -4.3181], [122.9082, -4.3235], [122.8947, -4.3348], [122.9015, -4.3777], [122.8833, -4.4139], [122.8828, -4.398], [122.8764, -4.4185], [122.8711, -4.4132], [122.8431, -4.4209], [122.8357, -4.4488], [122.8151, -4.4378], [122.816, -4.4251], [122.8112, -4.4298], [122.7699, -4.4088], [122.7432, -4.3831], [122.7356, -4.365], [122.7211, -4.3646], [122.6965, -4.3278], [122.6738, -4.3268], [122.6601, -4.3378], [122.6628, -4.3558], [122.6946, -4.3793], [122.7042, -4.406], [122.7416, -4.4319], [122.7572, -4.4268], [122.7618, -4.4809], [122.7453, -4.5093], [122.7143, -4.5014], [122.7056, -4.491], [122.7063, -4.4762], [122.6936, -4.47], [122.6766, -4.4834], [122.6948, -4.5017], [122.6717, -4.5079], [122.6571, -4.4717], [122.6688, -4.4731], [122.6642, -4.455], [122.5945, -4.3941], [122.5641, -4.402], [122.57, -4.4106], [122.5643, -4.4081], [122.5565, -4.4216], [122.5436, -4.4208], [122.5262, -4.4365], [122.5205, -4.4314], [122.5239, -4.4397], [122.5043, -4.4462], [122.5045, -4.4558], [122.5012, -4.4454], [122.4897, -4.4558], [122.4853, -4.448], [122.4709, -4.453], [122.4678, -4.4373], [122.4517, -4.4383], [122.4505, -4.4517], [122.4451, -4.4364], [122.4362, -4.437], [122.4365, -4.4464], [122.4208, -4.4292], [122.4, -4.4398], [122.3906, -4.4551], [122.3639, -4.4657], [122.3432, -4.4647], [122.3417, -4.4747], [122.3093, -4.4755], [122.2607, -4.493], [122.2528, -4.4924], [122.2518, -4.4841], [122.2264, -4.483], [122.22, -4.4728], [122.1894, -4.4723], [122.2159, -4.4746], [122.2174, -4.4816], [122.2107, -4.4793], [122.2137, -4.4843], [122.1944, -4.5007], [122.1908, -4.4934], [122.1899, -4.504], [122.1832, -4.5077], [122.182, -4.5017], [122.1809, -4.5115], [122.1646, -4.5183], [122.161, -4.5296], [122.1082, -4.5341], [122.1039, -4.5417], [122.0895, -4.5426], [122.0431, -4.6439], [122.0326, -4.6546], [122.0193, -4.647], [122.033, -4.6597], [122.0318, -4.72], [122.0444, -4.7639], [122.0748, -4.7915], [122.0949, -4.7951], [122.0939, -4.8082], [122.1204, -4.819], [122.0915, -4.8252], [122.0738, -4.8447], [122.0751, -4.859], [122.0675, -4.8498], [122.0345, -4.88], [122.0253, -4.8709], [122.023, -4.8919], [122.0071, -4.8981], [122.0018, -4.8989], [122.0051, -4.8837], [121.9837, -4.9015], [121.9373, -4.8828], [121.8796, -4.8762], [121.8089, -4.8347], [121.7914, -4.8346], [121.7835, -4.8452], [121.7799, -4.8372], [121.757, -4.8442], [121.7345, -4.837], [121.7095, -4.855], [121.6837, -4.8515], [121.6595, -4.8183], [121.6637, -4.8113], [121.6464, -4.8063], [121.6385, -4.8124], [121.6314, -4.8042], [121.6362, -4.799], [121.6274, -4.7898], [121.6283, -4.777], [121.6164, -4.7956], [121.5408, -4.7686], [121.5198, -4.7396], [121.5054, -4.7352], [121.508, -4.7123], [121.4955, -4.7136], [121.4948, -4.697], [121.4657, -4.6847], [121.4715, -4.6186], [121.4629, -4.6123], [121.4715, -4.6066], [121.4749, -4.551], [121.5119, -4.4574], [121.5238, -4.4025], [121.5156, -4.3456], [121.5258, -4.2926], [121.5334, -4.292], [121.5259, -4.246], [121.5332, -4.24], [121.5477, -4.2484], [121.5603, -4.2436], [121.5404, -4.255], [121.5478, -4.2662], [121.5656, -4.262], [121.579, -4.2458], [121.5856, -4.2005], [121.5997, -4.1883], [121.5887, -4.1776], [121.6062, -4.1814], [121.6071, -4.1621], [121.6164, -4.1513], [121.6068, -4.1049], [121.6213, -4.1014], [121.6055, -4.1042], [121.6087, -4.0672], [121.5849, -4.0588], [121.5874, -4.0516], [121.5775, -4.0529], [121.5621, -4.0386], [121.5526, -4.0435], [121.5052, -4.0178], [121.4562, -4.0078], [121.4522, -4.024], [121.4139, -3.9988], [121.371, -4.0037], [121.3457, -3.9891], [121.344962900445, -3.9843615028587], [121.3438, -3.9854], [121.3391, -3.9818], [121.3202, -3.9477], [121.322936698461, -3.94608083965745], [121.3052, -3.8909], [121.2801, -3.8847], [121.2677, -3.9099], [121.2537, -3.9111], [121.2523, -3.9208], [121.2401, -3.903], [121.2618, -3.8829], [121.2333, -3.8701], [121.2588, -3.8549], [121.2455, -3.8294], [121.1683, -3.8244], [121.1873, -3.805], [121.1678, -3.8239], [121.1584, -3.7977], [121.0983, -3.7432], [121.0825, -3.7147], [121.0269, -3.6904], [120.9813, -3.6431], [120.9437, -3.6196], [120.936, -3.5989], [120.905, -3.5764], [120.8984, -3.566], [120.91, -3.5681], [120.9058, -3.5585], [120.8802, -3.5309], [120.8657, -3.4282], [120.8958, -3.4032], [120.8943, -3.3873], [120.9194, -3.3538], [120.937, -3.3355], [120.9564, -3.3305], [120.9546, -3.2968], [120.9748, -3.2609], [121.0204, -3.2447], [121.0332, -3.2066], [121.0504, -3.1991], [121.0691, -3.2049], [121.0559, -3.1845], [121.061, -3.1342], [121.0504, -3.1114], [121.0594, -3.0694], [121.0432, -3.0364], [121.0565, -3.0221], [121.0638, -3.037], [121.0739, -3.0317], [121.0755, -3.0087], [121.0887, -3.0151], [121.0905, -2.9962], [121.0729, -2.9984], [121.0759, -2.9824], [121.0666, -2.9831], [121.0632, -2.9577], [121.081, -2.9717], [121.0823, -2.9481], [121.0897, -2.9449], [121.0906, -2.9235], [121.08, -2.8956], [121.0729, -2.8965], [121.0788, -2.8664], [121.0666, -2.8535], [121.0648, -2.8773], [121.047, -2.8675], [121.0369, -2.8072], [121.0277, -2.8497], [121.0167, -2.8377], [120.9917, -2.8408], [121.0112, -2.8702], [120.9966, -2.8703], [120.9883, -2.8313], [121.0194, -2.8198], [121.0316, -2.7935], [121.0801, -2.7794], [121.1727, -2.8181], [121.2036, -2.8577], [121.2209, -2.8581], [121.2208, -2.8431], [121.2332, -2.8423], [121.2378, -2.8268], [121.2805, -2.8186], [121.2954, -2.8071], [121.3187, -2.8077], [121.3577, -2.8993], [121.3287, -2.936], [121.3468, -2.9665], [121.4119, -3.0024], [121.4564, -3.0132], [121.4919, -2.9782], [121.5254, -2.9621], [121.5471, -2.9217], [121.5658, -2.9222], [121.6378, -2.8941], [121.6919, -2.9014], [121.7142, -2.9203], [121.7304, -2.9159], [121.7527, -2.9236], [121.7709, -2.9428], [121.7912, -2.9444], [121.8334, -2.9722], [121.8575, -2.9639], [121.9206, -2.99], [122.0055, -2.9578], [122.0385, -2.9596], [122.0634, -2.9495], [122.0849, -2.967], [122.0812, -2.9804], [122.1, -3.009], [122.1764, -3.0299], [122.1756, -3.0891], [122.2276, -3.1393], [122.2528, -3.1349], [122.2664, -3.1452], [122.2849, -3.1414], [122.3153, -3.1667], [122.311, -3.1941], [122.2954, -3.2206], [122.302, -3.237], [122.2957, -3.2558], [122.3108, -3.2729], [122.2795, -3.3128], [122.2923, -3.3122], [122.2932, -3.3594], [122.3045, -3.3554], [122.3119, -3.3695], [122.3379, -3.3646], [122.3539, -3.3851], [122.3718, -3.3793], [122.3906, -3.4066], [122.3808, -3.4631], [122.3757, -3.4578], [122.3592, -3.4644], [122.3641, -3.4404], [122.3504, -3.4299], [122.3584, -3.4171], [122.3445, -3.4078], [122.3267, -3.4261], [122.3147, -3.4251], [122.3258, -3.4142], [122.3194, -3.4078], [122.3275, -3.4024], [122.3201, -3.3962], [122.3301, -3.3908], [122.3229, -3.3862], [122.3282, -3.3733], [122.3091, -3.3847], [122.2893, -3.3765], [122.2942, -3.3682], [122.2762, -3.3631], [122.2742, -3.3806], [122.264, -3.3818], [122.2714, -3.3906], [122.2637, -3.3932], [122.268, -3.3991], [122.253, -3.3881], [122.2391, -3.3887], [122.2489, -3.4156], [122.2622, -3.4158], [122.2595, -3.4267], [122.2792, -3.4359], [122.3017, -3.468], [122.2878, -3.4924], [122.2824, -3.4807], [122.2619, -3.4828], [122.2674, -3.4883], [122.2537, -3.4869], [122.2471, -3.4953], [122.2839, -3.4886], [122.2818, -3.5486], [122.273, -3.5508], [122.270743143514, -3.53904058988763], [122.267, -3.5591], [122.2, -3.565], [122.1966, -3.6091], [122.2469, -3.6555], [122.2466, -3.6646], [122.3008, -3.6915], [122.3047, -3.7066], [122.3408, -3.7446], [122.3631, -3.7528], [122.383, -3.7393], [122.3844, -3.7265], [122.3929, -3.7266], [122.402, -3.7499], [122.4435, -3.7501], [122.4505, -3.781], [122.4704, -3.8086], [122.4688, -3.8201], [122.479, -3.8269], [122.4787, -3.82], [122.5061, -3.8543], [122.5063, -3.8811], [122.5247, -3.895], [122.5727, -3.9044], [122.5828, -3.8951], [122.5876, -3.9004], [122.5874, -3.8941], [122.6104, -3.8962], [122.6214, -3.8885], [122.6653, -3.8965], [122.6645, -3.9252], [122.6468, -3.9245], [122.6478, -3.9345], [122.628, -3.9383], [122.6252, -3.9586], [122.6088, -3.9628], [122.5993, -3.9791], [122.589, -3.9708], [122.53, -3.97], [122.5359, -3.9894], [122.5529, -3.9928], [122.5899, -3.9782], [122.6192, -4.0029], [122.6584, -4.0074], [122.6641, -4.0333], [122.6726, -4.0366], [122.6492, -4.0579], [122.6509, -4.0834], [122.662, -4.0811], [122.6568, -4.0947], [122.6677, -4.1142], [122.66, -4.1204], [122.6684, -4.1277]], [[121.344962900445, -3.9843615028587], [121.362369224512, -3.96881725066816], [121.3591, -3.9687], [121.3443, -3.9801], [121.344962900445, -3.9843615028587]], [[121.362369224512, -3.96881725066816], [121.4065, -3.9704], [121.4245, -3.9641], [121.4066, -3.9699], [121.3653, -3.9662], [121.362369224512, -3.96881725066816]], [[121.322936698461, -3.94608083965745], [121.3241, -3.9497], [121.334413355899, -3.93929070590667], [121.322936698461, -3.94608083965745]], [[121.334413355899, -3.93929070590667], [121.3633, -3.9222], [121.363443137255, -3.92162745098039], [121.3456, -3.928], [121.334413355899, -3.93929070590667]], [[121.363443137255, -3.92162745098039], [121.3638, -3.9215], [121.3667, -3.9086], [121.363443137255, -3.92162745098039]], [[122.270743143514, -3.53904058988763], [122.2709, -3.5382], [122.270590943396, -3.53824754716981], [122.270743143514, -3.53904058988763]], [[122.270590943396, -3.53824754716981], [122.2673, -3.5211], [122.254, -3.5408], [122.270590943396, -3.53824754716981]]], [[[122.0509, -4.8804], [122.0577, -4.8836], [122.0375, -4.8942], [122.0509, -4.8804]]], [[[122.1896, -4.8387], [122.1827, -4.837], [122.1963, -4.8348], [122.1896, -4.8387]]], [[[122.5182, -5.4281], [122.5124, -5.4062], [122.5243, -5.3979], [122.539, -5.3329], [122.5206, -5.3109], [122.53, -5.2785], [122.541, -5.2672], [122.5378, -5.2606], [122.5107, -5.2885], [122.4808, -5.3016], [122.4984, -5.3468], [122.4839, -5.3736], [122.4685, -5.3612], [122.4741, -5.3864], [122.4654, -5.4024], [122.4465, -5.4061], [122.4069, -5.3982], [122.3838, -5.3397], [122.3849, -5.3269], [122.4385, -5.313], [122.3974, -5.313], [122.3773, -5.3246], [122.3707, -5.3403], [122.382, -5.3678], [122.3651, -5.389], [122.3, -5.3966], [122.2789, -5.3946], [122.2684, -5.3816], [122.269, -5.3116], [122.3154, -5.2371], [122.3031, -5.2012], [122.3156, -5.1867], [122.3067, -5.1492], [122.3183, -5.141], [122.3223, -5.1128], [122.3339, -5.1007], [122.3527, -5.1012], [122.3823, -5.0875], [122.3941, -5.0716], [122.4042, -5.091], [122.4112, -5.0907], [122.3992, -5.0787], [122.4037, -5.0687], [122.3818, -5.0672], [122.3855, -5.0554], [122.3731, -5.0373], [122.3801, -4.9972], [122.389, -4.9964], [122.3757, -4.9765], [122.3752, -4.9519], [122.3605, -4.9444], [122.3616, -4.9277], [122.3495, -4.9239], [122.318, -4.8325], [122.3549, -4.7816], [122.3572, -4.7658], [122.3666, -4.766], [122.3616, -4.7594], [122.3736, -4.7406], [122.4072, -4.7491], [122.43, -4.7382], [122.4482, -4.7422], [122.4501, -4.7491], [122.4494, -4.7414], [122.4676, -4.7431], [122.4766, -4.739], [122.4778, -4.7238], [122.5292, -4.7109], [122.5348, -4.7058], [122.5291, -4.6972], [122.5452, -4.6883], [122.5553, -4.6936], [122.5651, -4.6791], [122.5846, -4.6697], [122.5959, -4.6557], [122.5999, -4.6267], [122.6195, -4.6369], [122.6187, -4.6303], [122.6288, -4.633], [122.6333, -4.6233], [122.6626, -4.6234], [122.6646, -4.6123], [122.6823, -4.6112], [122.74, -4.6499], [122.7341, -4.683], [122.7165, -4.6791], [122.7148, -4.6876], [122.743, -4.7535], [122.7346, -4.7571], [122.7448, -4.7931], [122.7341, -4.803], [122.7376, -4.811], [122.7251, -4.8465], [122.738, -4.8667], [122.73, -4.8713], [122.7392, -4.8738], [122.7362, -4.8821], [122.7435, -4.8874], [122.755, -4.8812], [122.7645, -4.8947], [122.7557, -4.9015], [122.7645, -4.9288], [122.7558, -4.9261], [122.7625, -4.9445], [122.7552, -4.9528], [122.7636, -4.9651], [122.7597, -4.9712], [122.7331, -4.9584], [122.7213, -4.9647], [122.7045, -5.0064], [122.6788, -5.0352], [122.6278, -5.0708], [122.6108, -5.0996], [122.62, -5.11], [122.5887, -5.16], [122.5854, -5.1868], [122.5913, -5.1988], [122.6241, -5.1923], [122.6274, -5.1983], [122.6173, -5.2177], [122.5922, -5.2303], [122.5776, -5.251], [122.5846, -5.2561], [122.6215, -5.2494], [122.6398, -5.2647], [122.6466, -5.293], [122.6401, -5.3562], [122.6194, -5.3718], [122.6221, -5.3471], [122.5954, -5.3617], [122.5932, -5.3908], [122.6033, -5.4065], [122.5941, -5.4165], [122.6004, -5.4269], [122.5948, -5.4345], [122.5665, -5.4114], [122.5452, -5.4411], [122.5208, -5.4382], [122.5182, -5.4281]]], [[[122.6159, -5.4565], [122.6341, -5.4572], [122.6502, -5.4368], [122.6392, -5.4094], [122.6186, -5.406], [122.6483, -5.3574], [122.6542, -5.3244], [122.6726, -5.3187], [122.6762, -5.3081], [122.6793, -5.3211], [122.6875, -5.3201], [122.7077, -5.2719], [122.732, -5.2423], [122.754, -5.2387], [122.7474, -5.2445], [122.7531, -5.2535], [122.771, -5.2541], [122.7922, -5.2429], [122.8067, -5.2215], [122.8067, -5.2026], [122.7888, -5.1834], [122.755, -5.229], [122.7472, -5.2199], [122.7583, -5.1876], [122.7524, -5.1733], [122.7404, -5.1795], [122.7375, -5.1704], [122.772, -5.1105], [122.7891, -5.1066], [122.7872, -5.0836], [122.7645, -5.1112], [122.7575, -5.11], [122.7672, -5.0857], [122.7949, -5.0603], [122.8025, -5.0266], [122.7893, -5.0192], [122.7384, -5.0529], [122.7406, -5.0396], [122.7667, -5.0077], [122.8123, -4.9816], [122.8149, -4.9422], [122.8223, -4.9215], [122.8318, -4.9207], [122.8286, -4.8891], [122.8059, -4.8674], [122.8184, -4.8393], [122.8131, -4.8289], [122.8399, -4.8353], [122.8574, -4.7798], [122.8412, -4.74], [122.8408, -4.6948], [122.8284, -4.6784], [122.8434, -4.6428], [122.8484, -4.591], [122.8669, -4.5505], [122.8674, -4.526], [122.8805, -4.5163], [122.8798, -4.5038], [122.9069, -4.4714], [122.9074, -4.4609], [122.9435, -4.4382], [122.9505, -4.4251], [123.0423, -4.3694], [123.0573, -4.3666], [123.0574, -4.3743], [123.0798, -4.3671], [123.0843, -4.3888], [123.0784, -4.4021], [123.0668, -4.4127], [123.0515, -4.4131], [123.0451, -4.4247], [123.0699, -4.4324], [123.0807, -4.4596], [123.1002, -4.4543], [123.1149, -4.4839], [123.1145, -4.4747], [123.139, -4.4824], [123.1473, -4.5165], [123.1796, -4.5561], [123.1978, -4.6099], [123.2087, -4.6129], [123.2052, -4.623], [123.193, -4.6177], [123.1927, -4.6304], [123.1842, -4.6339], [123.192, -4.6427], [123.1801, -4.6455], [123.1863, -4.6581], [123.1762, -4.6623], [123.1777, -4.6731], [123.1879, -4.6714], [123.1892, -4.6858], [123.1982, -4.6853], [123.2005, -4.6949], [123.201, -4.6804], [123.1938, -4.6789], [123.1982, -4.6567], [123.2068, -4.6752], [123.2122, -4.7151], [123.2022, -4.7772], [123.2141, -4.8263], [123.2132, -4.8586], [123.2048, -4.8668], [123.1736, -4.8368], [123.1686, -4.7817], [123.1762, -4.7706], [123.1631, -4.7724], [123.1652, -4.7626], [123.1334, -4.7572], [123.147, -4.7409], [123.1526, -4.7451], [123.1449, -4.7366], [123.1487, -4.7288], [123.1321, -4.7156], [123.1293, -4.7217], [123.126, -4.7097], [123.1213, -4.7159], [123.1144, -4.696], [123.1108, -4.7058], [123.1051, -4.6942], [123.1153, -4.7266], [123.1025, -4.7351], [123.102, -4.7616], [123.1096, -4.7708], [123.1002, -4.7946], [123.0753, -4.7886], [123.0852, -4.7757], [123.0761, -4.7731], [123.0838, -4.7599], [123.0787, -4.744], [123.076, -4.7561], [123.0622, -4.7527], [123.0564, -4.7702], [123.0327, -4.746], [123.0236, -4.7653], [123.0399, -4.8018], [123.008, -4.8157], [123.0083, -4.825], [122.9938, -4.827], [123.0093, -4.9041], [123.0013, -4.9358], [122.969, -4.9518], [122.9512, -5.0205], [122.955, -5.0292], [122.9685, -5.0269], [122.9793, -5.0584], [122.9685, -5.0899], [122.9733, -5.1154], [122.9428, -5.1611], [122.9198, -5.1794], [122.9313, -5.1889], [122.9366, -5.209], [122.9547, -5.2168], [123.0046, -5.1476], [123.0282, -5.1358], [123.0396, -5.1381], [123.0679, -5.1606], [123.0687, -5.1769], [123.0588, -5.1916], [123.068, -5.1909], [123.0826, -5.173], [123.0889, -5.1765], [123.1068, -5.1946], [123.0918, -5.2172], [123.1094, -5.2042], [123.1169, -5.2067], [123.1507, -5.2474], [123.1814, -5.247], [123.1981, -5.2606], [123.1991, -5.2717], [123.2203, -5.2724], [123.2184, -5.301], [123.1311, -5.3988], [123.0155, -5.444], [122.997, -5.4008], [122.9749, -5.3941], [122.9231, -5.437], [122.8953, -5.4391], [122.8722, -5.455], [122.8485, -5.4861], [122.8422, -5.5184], [122.8472, -5.5284], [122.876, -5.5064], [122.8927, -5.514], [122.8982, -5.5237], [122.8937, -5.5647], [122.8985, -5.5605], [122.8215, -5.6517], [122.803, -5.696], [122.7864, -5.7025], [122.7535, -5.6934], [122.7721, -5.6771], [122.773, -5.664], [122.7597, -5.6559], [122.7568, -5.6399], [122.7435, -5.6399], [122.7269, -5.6741], [122.7282, -5.6894], [122.7124, -5.6828], [122.7227, -5.6288], [122.714, -5.6193], [122.6627, -5.6935], [122.6462, -5.6994], [122.6282, -5.6855], [122.6101, -5.6548], [122.6128, -5.6331], [122.5804, -5.5722], [122.5699, -5.5259], [122.5564, -5.5183], [122.5655, -5.4809], [122.5926, -5.4567], [122.6159, -5.4565]]], [[[123.1876, -4.6684], [123.178, -4.6727], [123.1855, -4.6621], [123.1876, -4.6684]]], [[[122.3208, -4.6263], [122.3152, -4.6134], [122.3313, -4.6124], [122.3208, -4.6263]]], [[[122.3519, -4.636], [122.3561, -4.6487], [122.3413, -4.656], [122.3448, -4.6369], [122.3519, -4.636]]], [[[122.3367, -4.634], [122.3159, -4.6579], [122.3163, -4.6451], [122.3485, -4.622], [122.3367, -4.634]]], [[[122.7098, -4.5907], [122.732, -4.6026], [122.7187, -4.6021], [122.7098, -4.5907]]], [[[122.6895, -4.567], [122.699, -4.5767], [122.6828, -4.5782], [122.6895, -4.567]]], [[[122.3238, -4.5635], [122.3185, -4.5639], [122.3208, -4.5556], [122.3292, -4.552], [122.3238, -4.5635]]], [[[122.2945, -4.5601], [122.2892, -4.5528], [122.2945, -4.5443], [122.2945, -4.5601]]], [[[122.7278, -4.5431], [122.742, -4.5488], [122.7367, -4.5532], [122.7427, -4.5758], [122.731, -4.5637], [122.7258, -4.5677], [122.7271, -4.5577], [122.7118, -4.5615], [122.7095, -4.5466], [122.7092, -4.5644], [122.6999, -4.5625], [122.6866, -4.5387], [122.702, -4.5197], [122.7029, -4.5322], [122.7105, -4.5295], [122.7145, -4.5165], [122.7427, -4.5309], [122.7278, -4.5431]]], [[[122.1277, -4.828], [122.1207, -4.8324], [122.1207, -4.8201], [122.1409, -4.8164], [122.1357, -4.8279], [122.1277, -4.828]]], [[[123.1156, -4.7884], [123.1124, -4.7963], [123.1014, -4.7928], [123.1156, -4.7884]]], [[[123.0847, -4.7967], [123.1174, -4.7976], [123.1127, -4.8474], [123.0975, -4.848], [123.1051, -4.8383], [123.0949, -4.8361], [123.0951, -4.8293], [123.0907, -4.8385], [123.0968, -4.8495], [123.0889, -4.8538], [123.0652, -4.8418], [123.054, -4.8472], [123.0344, -4.8334], [123.0388, -4.8233], [123.0569, -4.8307], [123.0606, -4.8123], [123.0472, -4.822], [123.0447, -4.8145], [123.0679, -4.8006], [123.0735, -4.8086], [123.0762, -4.7968], [123.0847, -4.7967]]], [[[122.1505, -4.8082], [122.1525, -4.8147], [122.1425, -4.8168], [122.1505, -4.8082]]], [[[123.1198, -4.7727], [123.1249, -4.7755], [123.113, -4.7812], [123.1136, -4.7687], [123.1198, -4.7727]]], [[[123.1394, -4.7695], [123.157, -4.7734], [123.1361, -4.7733], [123.1378, -4.7605], [123.1394, -4.7695]]], [[[123.0375, -4.7669], [123.0299, -4.7667], [123.0328, -4.7542], [123.0375, -4.7669]]], [[[122.3583, -4.7304], [122.3557, -4.7405], [122.3499, -4.7389], [122.3489, -4.7296], [122.3583, -4.7304]]], [[[122.4648, -4.7091], [122.4679, -4.7158], [122.4493, -4.7107], [122.4586, -4.6963], [122.4648, -4.7091]]], [[[122.4163, -4.7066], [122.4073, -4.7084], [122.426, -4.6948], [122.4163, -4.7066]]], [[[122.3028, -4.7162], [122.292, -4.7044], [122.3095, -4.6855], [122.3178, -4.6921], [122.3028, -4.7162]]], [[[122.4691, -4.7243], [122.4648, -4.7291], [122.4604, -4.7237], [122.4691, -4.7243]]], [[[123.1145, -4.7426], [123.1267, -4.7608], [123.1221, -4.7654], [123.1099, -4.7494], [123.1145, -4.7426]]], [[[123.1278, -4.7281], [123.1337, -4.7475], [123.1219, -4.7409], [123.1286, -4.7385], [123.1278, -4.7281]]], [[[122.3838, -4.7022], [122.3812, -4.6971], [122.3895, -4.6956], [122.3838, -4.7022]]], [[[122.4117, -4.6927], [122.4089, -4.6873], [122.4168, -4.6848], [122.4117, -4.6927]]], [[[122.4382, -4.6781], [122.4385, -4.6863], [122.4285, -4.6886], [122.4382, -4.6781]]], [[[122.3475, -4.7128], [122.3241, -4.7241], [122.3472, -4.6849], [122.3782, -4.6649], [122.3792, -4.6742], [122.3475, -4.7128]]]]}}], "type": "FeatureCollection"}