{"crs": {}, "features": [{"properties": null, "type": "Feature", "geometry": {"type": "MultiPolygon", "coordinates": [[[[121.7821, -7.4213], [121.7456, -7.4134], [121.7541, -7.3522], [121.8277, -7.3332], [121.8397, -7.3718], [121.7821, -7.4213]]], [[[121.7966, -7.4721], [121.7974, -7.4883], [121.7235, -7.4926], [121.7966, -7.4721]]], [[[119.39, -5.1589], [119.408, -5.1448], [119.4093, -5.1132], [119.4515, -5.1025], [119.4467, -5.0855], [119.4775, -5.0602], [119.4664, -5.0261], [119.4769, -4.994], [119.5243, -4.924], [119.4996, -4.819], [119.4817, -4.8181], [119.4987, -4.8121], [119.4823, -4.7515], [119.5172, -4.7156], [119.5256, -4.6747], [119.596, -4.5616], [119.5812, -4.5289], [119.5998, -4.4742], [119.597, -4.4163], [119.6365, -4.319], [119.5953, -4.2442], [119.6254, -4.236], [119.6088, -4.2164], [119.6383, -4.1731], [119.6143, -4.1452], [119.6205, -4.1127], [119.606, -4.0844], [119.6379, -3.9762], [119.5873, -3.9742], [119.5933, -4.0048], [119.6144, -4.0042], [119.5937, -4.0224], [119.5993, -4.0419], [119.587, -4.0393], [119.5708, -3.9477], [119.4524, -3.7137], [119.4581, -3.6418], [119.5102, -3.597], [119.5132, -3.5577], [119.4741, -3.5029], [119.4924, -3.4746], [119.475, -3.4576], [119.4653, -3.3774], [119.43, -3.3452], [119.4452, -3.3321], [119.4315, -3.2653], [119.3703, -3.1993], [119.43, -3.1725], [119.4756, -3.1911], [119.5156, -3.1717], [119.5362, -3.1393], [119.6066, -3.1192], [119.6363, -3.1283], [119.5651, -2.996], [119.5767, -2.9511], [119.5507, -2.8978], [119.5688, -2.8704], [119.5615, -2.8121], [119.5784, -2.752], [119.6074, -2.7401], [119.6302, -2.7545], [119.6883, -2.7531], [119.7467, -2.7145], [119.7525, -2.671], [119.797, -2.6405], [119.7105, -2.5694], [119.7313, -2.5003], [119.6943, -2.4606], [119.7198, -2.4043], [119.6927, -2.3365], [119.6736, -2.3394], [119.6286, -2.2959], [119.6326, -2.2425], [119.7065, -2.1981], [119.7699, -2.121], [119.8054, -2.1111], [119.827, -2.0474], [119.8703, -2.0181], [119.8839, -2.0462], [119.9091, -2.0534], [119.991, -1.966], [120.0877, -1.9802], [120.1134, -1.992], [120.1194, -2.0124], [120.1791, -2.0344], [120.2706, -2.0283], [120.3398, -2.0613], [120.3888, -1.8975], [120.4034, -1.8955], [120.4705, -1.9629], [120.5028, -2.0296], [120.5864, -2.1295], [120.7174, -2.2233], [120.791, -2.2385], [120.805, -2.2253], [120.8803, -2.2198], [120.9909, -2.2441], [121.0344, -2.2755], [121.097, -2.2747], [121.181, -2.3749], [121.231, -2.3613], [121.408, -2.4103], [121.4421, -2.405], [121.5598, -2.4911], [121.6263, -2.49], [121.6532, -2.5395], [121.6991, -2.5335], [121.7904, -2.6604], [121.7222, -2.7683], [121.724, -2.808], [121.6698, -2.8426], [121.6726, -2.869], [121.6912, -2.8823], [121.6855, -2.9008], [121.6378, -2.8941], [121.5471, -2.9217], [121.5254, -2.9621], [121.4574, -3.0132], [121.3468, -2.9665], [121.3287, -2.936], [121.3577, -2.8993], [121.3187, -2.8077], [121.2378, -2.8268], [121.2209, -2.8581], [121.2036, -2.8577], [121.1727, -2.8181], [121.0801, -2.7794], [121.0316, -2.7935], [121.0194, -2.8198], [120.9883, -2.8313], [120.9747, -2.8087], [121.0172, -2.8086], [121.0337, -2.7675], [121.0602, -2.7706], [121.0679, -2.7382], [121.0827, -2.7444], [121.0942, -2.7232], [121.0789, -2.6968], [121.037, -2.6943], [121.0361, -2.6648], [121.0544, -2.6584], [121.0211, -2.6504], [121.0198, -2.6726], [120.9972, -2.6793], [120.9431, -2.658], [120.9067, -2.6624], [120.8913, -2.6403], [120.8567, -2.657], [120.8092, -2.6188], [120.7553, -2.6201], [120.7461, -2.6371], [120.673, -2.6445], [120.6335, -2.6821], [120.5718, -2.6859], [120.5642, -2.7255], [120.4554, -2.8219], [120.3501, -2.8679], [120.3244, -2.9025], [120.2875, -2.9105], [120.2555, -2.9459], [120.1907, -2.9657], [120.2295, -3.0433], [120.2587, -3.065], [120.2556, -3.16], [120.3818, -3.2021], [120.3884, -3.2511], [120.4076, -3.2607], [120.4176, -3.2484], [120.4209, -3.2646], [120.3988, -3.2893], [120.4045, -3.4314], [120.3794, -3.5004], [120.4174, -3.5729], [120.412, -3.6636], [120.438, -3.6889], [120.4413, -3.7393], [120.3437, -3.8916], [120.3359, -3.9377], [120.3532, -3.9742], [120.3413, -3.9954], [120.361, -4.0218], [120.3559, -4.0649], [120.3304, -4.1038], [120.3804, -4.1686], [120.3649, -4.2986], [120.3933, -4.3325], [120.3605, -4.3715], [120.3473, -4.4257], [120.4019, -4.4812], [120.3766, -4.5119], [120.3849, -4.5487], [120.4074, -4.5443], [120.3839, -4.5548], [120.3994, -4.6057], [120.4613, -4.6583], [120.4003, -4.7094], [120.3833, -4.8379], [120.3378, -4.8402], [120.3049, -4.8757], [120.3147, -4.909], [120.2952, -4.9214], [120.3109, -4.9362], [120.2969, -4.9486], [120.3086, -5.0005], [120.2892, -5.0428], [120.3014, -5.0425], [120.2897, -5.1156], [120.2707, -5.143], [120.3426, -5.3014], [120.4046, -5.3416], [120.4027, -5.3784], [120.4337, -5.4452], [120.4241, -5.4653], [120.4511, -5.4766], [120.4452, -5.5572], [120.4721, -5.6227], [120.3943, -5.5869], [120.3521, -5.5195], [120.3149, -5.5072], [120.2838, -5.5345], [120.2204, -5.5402], [120.1292, -5.5884], [119.9344, -5.5447], [119.865, -5.6104], [119.8626, -5.6335], [119.8366, -5.6393], [119.85, -5.6652], [119.7928, -5.7014], [119.673, -5.6949], [119.6408, -5.6721], [119.66, -5.649], [119.6511, -5.6292], [119.6113, -5.6126], [119.5851, -5.6147], [119.5882, -5.6448], [119.5746, -5.6581], [119.5449, -5.6198], [119.5537, -5.5947], [119.5604, -5.6113], [119.5731, -5.6067], [119.5123, -5.5688], [119.5108, -5.5367], [119.5029, -5.5585], [119.4594, -5.579], [119.4709, -5.5935], [119.4862, -5.584], [119.489, -5.604], [119.4399, -5.5964], [119.4178, -5.5601], [119.4358, -5.538], [119.4318, -5.5122], [119.3618, -5.4155], [119.354, -5.326], [119.39, -5.1589]]], [[[121.7612, -7.2613], [121.7788, -7.2726], [121.7734, -7.2864], [121.7274, -7.2946], [121.7612, -7.2613]]], [[[121.4212, -7.4502], [121.4264, -7.4655], [121.4129, -7.4572], [121.4212, -7.4502]]], [[[121.1022, -7.3118], [121.1682, -7.3541], [121.0987, -7.3975], [121.0602, -7.3715], [121.0825, -7.3619], [121.0815, -7.3042], [121.1022, -7.3118]]], [[[121.0261, -7.3284], [120.8304, -7.2985], [120.7957, -7.2704], [120.8394, -7.2598], [120.9191, -7.2845], [121.0044, -7.2818], [121.0637, -7.2994], [121.0518, -7.3264], [121.0261, -7.3284]]], [[[120.8136, -6.8303], [120.7958, -6.8664], [120.7796, -6.7996], [120.7887, -6.7787], [120.8136, -6.8303]]], [[[120.7768, -7.1064], [120.7673, -7.1354], [120.6619, -7.121], [120.6536, -7.1275], [120.6803, -7.1428], [120.6698, -7.1505], [120.6333, -7.1334], [120.6239, -7.1136], [120.6354, -7.099], [120.6047, -7.0743], [120.6276, -7.0525], [120.6199, -7.0037], [120.7484, -7.0789], [120.7857, -7.0592], [120.7768, -7.1064]]], [[[120.5614, -7.0734], [120.6119, -7.0901], [120.5641, -7.0928], [120.5614, -7.0734]]], [[[120.4547, -6.3828], [120.4719, -6.3814], [120.4813, -6.2831], [120.4456, -6.2667], [120.4451, -6.1981], [120.4265, -6.1799], [120.4478, -6.1623], [120.466, -6.0939], [120.4505, -6.0612], [120.4455, -5.9605], [120.4611, -5.7943], [120.4916, -5.7676], [120.5086, -5.7926], [120.5024, -5.8129], [120.5302, -5.8441], [120.5681, -6.0561], [120.5515, -6.075], [120.524, -6.2225], [120.5383, -6.2476], [120.5382, -6.327], [120.4949, -6.392], [120.5099, -6.4431], [120.4839, -6.4985], [120.4601, -6.4085], [120.4702, -6.4013], [120.4547, -6.3828]]], [[[120.479, -5.7389], [120.4923, -5.7523], [120.4744, -5.7505], [120.479, -5.7389]]], [[[120.4581, -4.5424], [120.4471, -4.5399], [120.4555, -4.529], [120.4581, -4.5424]]], [[[120.4444, -6.9492], [120.4556, -6.9617], [120.4372, -6.9708], [120.4444, -6.9492]]], [[[120.4286, -4.5007], [120.4527, -4.5084], [120.4233, -4.5182], [120.4161, -4.4961], [120.4286, -4.5007]]], [[[120.429, -5.6393], [120.4456, -5.6445], [120.4301, -5.6609], [120.429, -5.6393]]], [[[120.4363, -6.5807], [120.44, -6.6443], [120.4257, -6.64], [120.4205, -6.5986], [120.4363, -6.5807]]], [[[120.4215, -6.1742], [120.4205, -6.2067], [120.3986, -6.2026], [120.4064, -6.128], [120.4315, -6.1058], [120.4165, -6.1386], [120.4215, -6.1742]]], [[[120.2746, -6.6769], [120.2818, -6.7013], [120.2698, -6.6967], [120.2746, -6.6769]]], [[[119.2702, -5.5193], [119.256, -5.5235], [119.248, -5.492], [119.2578, -5.4842], [119.2575, -5.5018], [119.2767, -5.5007], [119.2627, -5.4557], [119.2945, -5.4491], [119.3203, -5.4756], [119.3199, -5.5107], [119.2776, -5.5363], [119.2702, -5.5193]]], [[[119.2397, -5.4518], [119.2239, -5.4693], [119.2267, -5.4446], [119.2397, -5.4518]]], [[[119.1946, -6.8181], [119.169, -6.8474], [119.1735, -6.827], [119.1946, -6.8181]]], [[[119.1143, -6.8368], [119.1227, -6.8582], [119.0957, -6.8679], [119.1143, -6.8368]]], [[[118.8345, -6.57], [118.841, -6.5834], [118.8251, -6.5768], [118.8345, -6.57]]], [[[118.1456, -5.1144], [118.1561, -5.1342], [118.1389, -5.1267], [118.1456, -5.1144]]], [[[117.9467, -5.4078], [117.9217, -5.3529], [117.9517, -5.3846], [117.9467, -5.4078]]], [[[117.8119, -7.3964], [117.8163, -7.4054], [117.8016, -7.3921], [117.8119, -7.3964]]], [[[117.6555, -5.2221], [117.6622, -5.1757], [117.6818, -5.1978], [117.6555, -5.2221]]], [[[117.4434, -7.5121], [117.4311, -7.5393], [117.4237, -7.5189], [117.4434, -7.5121]]], [[[117.2882, -7.5251], [117.3359, -7.528], [117.2842, -7.5389], [117.2882, -7.5251]]], [[[117.1844, -7.4926], [117.1973, -7.5014], [117.1779, -7.5084], [117.1844, -7.4926]]]]}}], "type": "FeatureCollection"}